,FacilityName,Violation,DispositionDate,fines,non_alert_disposition_type,license_revoked,alert,Address,City,State,Zip
0,FLOWER CHILD,Sale To Minor,03/05/2019,1000.0,setttled,0,1,10072 DARNESTOWN RD.,ROCKVILLE,MD,20860
1,BUFFALO WILD WINGS,Alcohol Awareness Certified Person Not On Premises,08/21/2019,100.0,setttled,0,1,33 MARYLAND AVE.,ROCKVILLE,MD,20850
2,"TACOS, TORTAS & TEQUILA",License Not Properly Displayed,04/03/2019,100.0,setttled,0,1,8407 RAMSEY AVE.,SILVER SPRING,MD,20910
3,THE SPOT,Employee Records Not Available When Requested,08/06/2019,500.0,setttled,0,1,255 NORTH WASHINGTON ST.,ROCKVILLE,MD,20850
4,THE SPOT,Alcohol Awareness Certified Person Not On Premises,08/06/2019,100.0,setttled,0,1,255 NORTH WASHINGTON ST.,ROCKVILLE,MD,20850
5,DON POLLO OF POTOMAC,Employee Records Not Available When Requested,03/26/2019,500.0,setttled,0,1,10231 WESTLAKE DR.,BETHESDA,MD,20817
6,FRIENDSHIP GOURMET MARKET,Display Of License,01/14/2022,100.0,setttled,0,1,5550 FRIENDSHIP BLVD,CHEVY CHASE,MD,20815
7,GORDON BIERSCH BREWERY RESTAURANT,Alcohol Awareness Certified Person Not On Premises,03/25/2019,500.0,setttled,0,1,200 EAST MIDDLE LANE UNIT A,ROCKVILLE,MD,20850
8,TALBOTT BEER & WINE,Sale To Minor,10/15/2018,0.0,suspension,0,0,1071 ROCKVILLE PIKE,ROCKVILLE,MD,20852
9,ARMAND'S PIZZERIA & GRILLE,Sale To Minor,03/04/2019,1000.0,setttled,0,1,190 HALPINE ROAD,ROCKVILLE,MD,20852
10,GUAPOS II,Refilling Empty/Partially Empty Alcoholic Bottles,03/27/2019,800.0,setttled,0,1,8130 WISCONSIN AVE.,BETHESDA,MD,20814
11,GIUSEPPI'S PIZZA PLUS,Alcohol Awareness Certified Person Not On Premises,04/12/2019,100.0,setttled,0,1,335 KENTLANDS BLVD.,GAITHERSBURG,MD,20878
12,GUAPOS II,Alcohol Awareness Certified Person Not On Premises,03/27/2019,100.0,setttled,0,1,8130 WISCONSIN AVE.,BETHESDA,MD,20814
13,GYROLAND,Alcohol Awareness Certified Person Not On Premises,10/09/2019,100.0,setttled,0,1,1701 ROCKVILLE PIKE B3,ROCKVILLE,MD,20852
14,SUPER CHICKEN,Alcohol Awareness Certified Person Not On Premises,07/29/2019,100.0,setttled,0,1,2531 ENNALLS AVE.,WHEATON,MD,20902
15,LIFETIME ATHLETIC,Storage,07/29/2019,2900.0,setttled,0,1,10121 WASHINGTONIAN BLVD,GAITHERSBURG,MD,20878
16,OWENS ORDINARY,Alcohol After Permitted Hours,11/02/2018,0.0,none,0,1,11820 TRADE STREET,NORTH BETHESDA,MD,20852
17,THE SPOT,Sale To Minor,08/06/2019,1000.0,setttled,0,1,255 NORTH WASHINGTON ST.,ROCKVILLE,MD,20850
18,KALDI'S COFFEE,License Not Properly Displayed,05/01/2019,100.0,setttled,0,1,918 SILVER SPRING AVENUE,SILVER SPRING,MD,20910
19,ETHIO ADDIS MARKET,License Not Properly Displayed,05/01/2019,100.0,setttled,0,1,8107 FENTON STREET,SILVER SPRING,MD,20910
20,THAT'S AMORE,Alcohol Awareness Certified Person Not On Premises,04/09/2019,500.0,setttled,0,1,15201 SHADY GROVE ROAD,ROCKVILLE,MD,20850
21,TRAPEZARIA MEDITERRANEAN KUZINA,Storage,03/08/2019,400.0,setttled,0,1,11 NORTH WASHINGTON STREET,ROCKVILLE,MD,20850
22,THAI FARM,Alcohol Awareness Certified Person Not On Premises,01/22/2019,500.0,setttled,0,1,800 KING FARM BLVD. #125,ROCKVILLE,MD,20850
23,SARITA'S CHICKEN RESTAURANT,License Not Properly Displayed,05/01/2019,100.0,setttled,0,1,2545 ENNALLS AVENUE,WHEATON,MD,20904
24,EMPIRE CAFE & MARKET,Sales Or Service To Minors/Consumption Or Possession Of Minors,03/28/2020,500.0,setttled,0,1,22301 GEORGIA AVENUE,BROOKVILLE,MD,20833
25,BLACK'S BAR & KITCHEN,Display Of License,02/11/2021,100.0,setttled,0,1,7750 WOODMONT AVE,BETHESDA,MD,20814
26,CAFE 20/20,Employee Records Not Available When Requested,09/25/2019,500.0,none,0,1,4870 BOILING BROOK PARKWAY,ROCKVILLE,MD,20852
27,MEDIUM RARE,Sales Or Service To Minors/Consumption Or Possession Of Minors,03/13/2020,500.0,setttled,0,1,4904 FAIRMONT AVE,BETHESDA,MD,20814
28,FRIENDSHIP GOURMET MARKET,Alcohol Awareness Certification,01/14/2022,100.0,setttled,0,1,5550 FRIENDSHIP BLVD,CHEVY CHASE,MD,20815
29,BOYDS COUNTRY STORE,License Not Properly Displayed,06/14/2019,100.0,setttled,0,1,15110 BARNSVILLE ROAD,BOYDS,MD,20841
30,CHIPOTLE MEXICAN GRILL,Records Invoice Violation,07/05/2019,500.0,setttled,0,1,7624 OLD GEORGETOWN ROAD,BETHESDA,MD,20814
31,RODMANS PARTY BOUTIQUE,Alcohol Awareness Certification,09/11/2020,100.0,setttled,0,1,4301 RANDOLPH ROAD,SILVER SPRING,MD,20906
32,WONG GEE ASIAN RESTAURANT,Display Of License,10/28/2021,100.0,setttled,0,1,2417 UNIVERSITY BLVD WEST,SILVER SPRING,MD,20902
33,URBAN CRAWFISH,License Not Properly Displayed,05/01/2019,100.0,setttled,0,1,670 QUINCE ORCHARD RD,GAITHERSBURG,MD,20878
34,MYTHOS MEDITTERANEAN GREEK RESTAURANT,License Not Properly Displayed,05/02/2019,100.0,setttled,0,1,8371 SNOUFFER SCHOOL ROAD,GAITHERSBURG,MD,20879
35,CANA BEER AND WINE,Keg Registration Violation,06/28/2019,600.0,setttled,0,1,13505 CLOPPER RD.,GERMANTOWN,MD,20874
36,ASIA NINE II,Alcohol Awareness Certified Person Not On Premises,03/22/2019,100.0,setttled,0,1,254 CROWN PARK ROAD,GAITHERSBURG,MD,20878
37,LIA'S,Storage,04/11/2019,2300.0,setttled,0,1,4445 WILLARD AVE.,CHEVY CHASE,MD,20815
38,ABOL RESTAURANT,License Not Properly Displayed,05/01/2019,100.0,setttled,0,1,8626 COLESVILLE RD.,SILVER SPRING,MD,20910
39,DOLLAR PLUS STORE,Sales Or Service To Minors/Consumption Or Possession Of Minors,03/28/2020,2500.0,setttled,0,1,11250 TRIANGLE LANE,SILVER SPRING,MD,20902
40,COURTYARD BY MARRIOTT,Sale To Minor,02/19/2019,2500.0,setttled,0,1,2500 RESEARCH BOULEVARD,ROCKVILLE,MD,20850
41,AKIRA RAMEN IZAKAYA,Alcohol Awareness Certified Person Not On Premises,04/15/2019,500.0,setttled,0,1,1800 ROCKVILLE PIKE UNIT H1,ROCKVILLE,MD,20852
42,RODMANS PARTY BOUTIQUE,Sales Or Service To Minors/Consumption Or Possession Of Minors,09/11/2020,1000.0,setttled,0,1,4301 RANDOLPH ROAD,SILVER SPRING,MD,20906
43,HOLIDAY INN EXPRESS & SUITES,Class License Violation,09/13/2017,1000.0,setttled,0,1,20260 GOLDENROD LANE,GERMANTOWN,MD,20876
44,THAI FARM,Records Invoice Violation,01/22/2019,500.0,setttled,0,1,800 KING FARM BLVD. #125,ROCKVILLE,MD,20850
45,THE GRILLE AT FLOWER HILL,License Not Properly Displayed,05/01/2019,100.0,setttled,0,1,18257 FLOWER HILL WAY,GAITHERSBURG,MD,20879
46,CAFE 20/20,License Not Properly Displayed,09/25/2019,100.0,none,0,1,4870 BOILING BROOK PARKWAY,ROCKVILLE,MD,20852
47,BLACK'S BAR & KITCHEN,Sales Or Service To Minors/Consumption Or Possession Of Minors,02/11/2021,1500.0,setttled,0,1,7750 WOODMONT AVE,BETHESDA,MD,20814
48,PORT AU PRINCE,License Not Properly Displayed,05/01/2019,100.0,setttled,0,1,7912 GEORGIA AVE.,SILVER SPRING,MD,20910
49,PASSION NAIL SPA,Alcohol Awareness Certified Person Not On Premises,07/01/2019,100.0,setttled,0,1,19847 H CENTURY BLVD.,GERMANTOWN,MD,20874
50,TERRAIN CAFE,Alcohol Awareness Certified Person Not On Premises,03/22/2019,100.0,setttled,0,1,7228 WOODMONT AVE.,BETHESDA,MD,20814
51,TERRAIN CAFE,Alcohol Awareness Certified Person Not On Premises,03/25/2019,500.0,setttled,0,1,7228 WOODMONT AVE.,BETHESDA,MD,20814
52,OUTBACK STEAKHOUSE,Alcohol Awareness Certified Person Not On Premises,05/21/2019,500.0,setttled,0,1,12609 WISTERIA DR,GERMANTOWN,MD,20874
53,THAT'S AMORE,Sale To Minor,02/19/2019,2500.0,setttled,0,1,15201 SHADY GROVE ROAD,ROCKVILLE,MD,20850
54,CAFE 20/20,Sale To Minor,09/25/2019,2500.0,none,0,1,4870 BOILING BROOK PARKWAY,ROCKVILLE,MD,20852
55,FANTASY NAIL SPA,Records Invoice Violation,12/07/2018,500.0,setttled,0,1,9321 GEORGIA AVE.,SILVER SPRING,MD,20910
56,MAMMA LUCIA'S,Sale To Minor,02/19/2019,2500.0,setttled,0,1,14921 SHADY GROVE ROAD,ROCKVILLE,MD,20850
57,PASSION NAIL SPA,License Not Properly Displayed,07/01/2019,100.0,setttled,0,1,19847 H CENTURY BLVD.,GERMANTOWN,MD,20874
58,WHEATON SPORT BAR & GRILL,Employee Records Not Available When Requested,03/18/2019,500.0,setttled,0,1,11300 GEORGIA AVE.,SILVER SPRING,MD,20902
59,GOLF ULTRA LOUNGE,Acts Contrary To Law,05/26/2019,1000.0,setttled,0,1,8123 GEORGIA AVENUE,SILVER SPRING,MD,20910
60,WISTERIA BEER AND WINE,License Not Properly Displayed,07/01/2019,100.0,setttled,0,1,13220 WISTERIA DR. UNIT #4,GERMANTOWN,MD,20874
61,ST. ARNOLD'S MUSSEL BAR,Sale To Minor,06/01/2016,1000.0,setttled,0,1,7525 OLD GEORGETOWN ROAD,BETHESDA,MD,20814
62,MINERVA INDIAN CUISINE,License Not Properly Displayed,05/01/2019,100.0,setttled,0,1,16240 FREDERICK ROAD,GAITHERSBURG,MD,20877
63,MAKI BAR,Alcohol Awareness Certified Person Not On Premises,03/27/2019,100.0,setttled,0,1,6831 WISCONSIN AVE. 300,BETHESDA,MD,20815
64,TERRAIN CAFE,Employee Records Not Available When Requested,03/22/2019,500.0,setttled,0,1,7228 WOODMONT AVE.,BETHESDA,MD,20814
65,NEW VILLAGE RESTAURANT,Employee Records Not Available When Requested,03/26/2019,500.0,setttled,0,1,11540 MIDDLEBROOK ROAD,GERMANTOWN,MD,20876
66,EL ENCANTO,License Not Properly Displayed,05/01/2019,100.0,setttled,0,1,8035 SNOUFFER SCHOOL ROAD,GAITHERSBURG,MD,20879
67,CUBANO'S,Refilling Empty/Partially Empty Alcoholic Bottles,04/17/2019,200.0,setttled,0,1,1201 FIDLER LANE,SILVER SPRING,MD,20910
68,JINYA RAMEN BAR,Refilling Empty/Partially Empty Alcoholic Bottles,06/14/2019,400.0,setttled,0,1,910 PROSE ST.,ROCKVILLE,MD,20852
69,THE VILLAGE AT ROCKVILLE,License Not Properly Displayed,05/07/2019,100.0,setttled,0,1,9701 VEIRS DR.,ROCKVILLE,MD,20850
70,ST. ARNOLD'S MUSSEL BAR,Alcohol Awareness Certified Person Not On Premises,02/13/2017,100.0,setttled,0,1,7525 OLD GEORGETOWN ROAD,BETHESDA,MD,20814
71,GODAVARI,License Not Properly Displayed,05/01/2019,100.0,setttled,0,1,9011 GAITHER ROAD,GAITHERSBURG,MD,20877
72,H RESTAURANT AND NIGHT CLUB,Employee Records Not Available When Requested,02/03/2018,500.0,none,1,1,11300 GEORGIA AVENUE,WHEATON,MD,20902
73,CIELO ROJO,License Not Properly Displayed,05/01/2019,100.0,setttled,0,1,7056 CARROLL AVE.,TAKOMA PARK,MD,20912
74,BROADWAY PIZZA,Alcohol Awareness Certified Person Not On Premises,07/22/2019,100.0,setttled,0,1,7965 TUCKERMAN LANE,POTOMAC,MD,20854
75,CONGRESS RESTAURANT AND LOUNGE,Alcohol Awareness Certified Person Not On Premises,07/27/2017,500.0,setttled,0,1,6834 NEW HAMPSHIRE AVENUE,TAKOMA PARK,MD,20912
76,BANTA BAA RESTAURANT,License Not Properly Displayed,05/01/2019,100.0,setttled,0,1,8000 FLOWER AVE.,TAKOMA PARK,MD,20912
77,ENGOCHA MARKET,License Not Properly Displayed,05/01/2019,100.0,setttled,0,1,11406 GEORGIA AVE. STE.A,WHEATON,MD,20902
78,GREAT SHOALS,License Not Properly Displayed,05/01/2019,100.0,setttled,0,1,7050 CARROLL AVE. #101,TAKOMA PARK,MD,20912
79,AKIRA RAMEN IZAKAYA,License Not Properly Displayed,05/01/2019,100.0,setttled,0,1,1800 ROCKVILLE PIKE UNIT H1,ROCKVILLE,MD,20852
80,LATINO MARKET GROCERY,Sale To Minor,08/09/2018,0.0,none,1,0,12 E. DIAMOND AVE. JK,GAITHERSBURG,MD,20877
81,SPICE XING,Refilling Empty/Partially Empty Alcoholic Bottles,04/11/2019,1000.0,setttled,0,1,100 GIBBS STREET B,ROCKVILLE,MD,20850
82,H RESTAURANT AND NIGHT CLUB,Refilling Empty/Partially Empty Alcoholic Bottles,02/03/2018,600.0,none,1,0,11300 GEORGIA AVENUE,WHEATON,MD,20902
83,LATINO MARKET GROCERY,Alcohol Awareness Certified Person Not On Premises,08/09/2018,0.0,none,1,0,12 E. DIAMOND AVE. JK,GAITHERSBURG,MD,20877
84,EL ENCANTO,Storage,08/18/2022,400.0,none,0,1,8035 SNOUFFER SCHOOL ROAD #1,GAITHERSBURG,MD,20879
85,DOWNTOWN BEER & WINE,Application - Failure To Update,07/31/2019,0.0,none,0,0,70 UPPER ROCK CIRCLE 103104,ROCKVILLE,MD,20850
86,BUCA DI BEPPO,Alcohol Awareness Certified Person Not On Premises,07/24/2019,500.0,setttled,0,1,122 KENTLANDS BLVD.,GAITHERSBURG,MD,20878
87,LE PAIN QUOTIDIEN,Alcohol Awareness Certified Person Not On Premises,07/25/2019,500.0,setttled,0,1,7140 BETHESDA LANE,BETHESDA,MD,20814
88,FOOD STOP MINI MART,Sale To Minor,03/05/2019,0.0,suspension,0,1,4820 BOILING BROOK PARKWAY,ROCKVILLE,MD,20852
89,LESAAC CAFE,Alcohol Awareness Certification,01/07/2022,250.0,setttled,0,1,8200 FENTON STREET,SILVER SPRING,MD,20910
90,THE SPOT,Refilling Empty/Partially Empty Alcoholic Bottles,06/19/2019,7200.0,setttled,0,1,255 NORTH WASHINGTON ST.,ROCKVILLE,MD,20850
91,LA COLOMBIANA RESTAURANT,Disorderly House,06/16/2019,1000.0,setttled,0,1,11216 GRANDVIEW AVENUE,WHEATON,MD,20902
92,URBAN BAR-B-QUE CO,License Not Properly Displayed,05/01/2019,100.0,setttled,0,1,5566 NORBECK RD.,ROCKVILLE,MD,20853
93,HIBACHI SUSHI SUPREME BUFFET,Alcohol Awareness Certified Person Not On Premises,06/20/2019,0.0,suspension,0,0,8 BUREAU DRIVE,GAITHERSBURG,MD,20878
95,TRAPEZARIA MEDITERRANEAN KUZINA,Alcohol Awareness Certified Person Not On Premises,08/28/2019,500.0,setttled,0,1,11 NORTH WASHINGTON STREET,ROCKVILLE,MD,20850
96,TRAPEZARIA MEDITERRANEAN KUZINA,Sale To Minor,08/28/2019,2500.0,setttled,0,1,11 NORTH WASHINGTON STREET,ROCKVILLE,MD,20850
97,7 LOCKS BREWING,Sale To Minor,09/25/2019,1000.0,setttled,0,1,12227 WILKINS AVENUE,ROCKVILLE,MD,20852
98,OM INDIAN RESTAURANT,Sale To Minor,10/09/2019,1000.0,none,0,1,785 ROCKVILLE PIKE K,ROCKVILLE,MD,20852
99,PIZZA CS,License Not Properly Displayed,10/09/2019,100.0,none,0,1,1596 ROCKVILLE PIKE,ROCKVILLE,MD,20850
100,PIZZA CS,Sale To Minor,10/09/2019,2500.0,none,0,1,1596 ROCKVILLE PIKE,ROCKVILLE,MD,20850
101,PALISADES LOUNGE,"Consumption, Possession, Or Sale During Prohibited Hours",01/21/2021,500.0,none,0,1,8211 GEORGIA AVE,SILVER SPRING,MD,20910
102,SOCIETY RESTAURANT & LOUNGE,Acts Contrary To Law,04/15/2021,250.0,setttled,0,1,8229 GEORGIA AVENUE,SILVER SPRING,MD,20910
103,RAINBOW RESTAURANT,License Not Properly Displayed,07/24/2019,100.0,setttled,0,1,312 E. DIAMOND AVE. B1,GAITHERSBURG,MD,20877
104,SMOKETOWN BBQ,Sales Or Service To Minors/Consumption Or Possession Of Minors,03/28/2020,1000.0,none,0,1,805 OLNEY SANDY SPRING RD.,SANDY SPRING,MD,20860
105,SOCIETY RESTAURANT & LOUNGE,Dispensing Of Liquor,04/15/2021,3000.0,setttled,0,1,8229 GEORGIA AVENUE,SILVER SPRING,MD,20910
106,GOLF ULTRA LOUNGE,Storage,03/08/2021,0.0,setttled,0,1,8123 GEORGIA AVE,SILVER SPRING,MD,20910
107,OUTBACK STEAKHOUSE - GERMANTOWN,Alcohol Awareness Certification,05/01/2019,500.0,setttled,0,1,12609 WISTERIA DRIVE,GERMANTOWN,MD,20874
108,KALDI'S COFFEE,Acts Contrary To Law,05/26/2019,1000.0,setttled,0,1,918 SILVER SPRING AVENUE,SILVER SPRING,MD,20910
109,DRYBAR,Storage,09/26/2019,2800.0,setttled,0,1,4840 BETHESDA AVE.,BETHESDA,MD,20814
110,ASIA NINE II,Gambling On Premises,03/22/2019,1000.0,setttled,0,1,254 CROWN PARK ROAD,GAITHERSBURG,MD,20878
111,KING'S CRAFT BEER & WINE DELI,Sale To Minor,08/06/2019,1000.0,setttled,0,1,402 KING FARM BLVD. 100,ROCKVILLE,MD,20850
112,"TRAN DINH BEER, WINE, & DELI",Age Of Employee Violation,08/02/2019,1000.0,setttled,0,1,20 MONTGOMERY VILLAGE AVENUE D,GAITHERSBURG,MD,20879
113,EL ENCANTO,Alcohol Awareness Certified Person Not On Premises,07/23/2019,100.0,setttled,0,1,8035 SNOUFFER SCHOOL ROAD,GAITHERSBURG,MD,20879
114,NANDO'S PERI PERI - GAITHERSBURG,Alcohol Awareness Certified Person Not On Premises,08/13/2019,100.0,setttled,0,1,224 BOARDWALK PLACE,GAITHERSBURG,MD,20878
115,NIWANO HANA,Alcohol Awareness Certified Person Not On Premises,08/28/2019,100.0,setttled,0,1,887 ROCKVILLE PIKE,ROCKVILLE,MD,20852
116,VASILI'S KITCHEN,Refilling Empty/Partially Empty Alcoholic Bottles,08/21/2019,600.0,setttled,0,1,705 CENTER POINT WAY,GAITHERSBURG,MD,20878
117,BB.Q CHICKEN & BEER,Alcohol Awareness Certified Person Not On Premises,08/06/2019,100.0,setttled,0,1,9712 TRAVILLE GATEWAY DR.,ROCKVILLE,MD,20850
118,HOT POT LEGEND,Sale To Minor,08/06/2019,1000.0,setttled,0,1,595 HUNGERFORD DR.,ROCKVILLE,MD,20850
119,VASILI'S KITCHEN,Alcohol Awareness Certified Person Not On Premises,08/21/2019,100.0,setttled,0,1,705 CENTER POINT WAY,GAITHERSBURG,MD,20878
120,BB.Q CHICKEN & BEER,Sale To Minor,08/06/2019,1000.0,setttled,0,1,9712 TRAVILLE GATEWAY DR.,ROCKVILLE,MD,20850
121,NIWANO HANA,Sale To Minor,08/28/2019,1000.0,setttled,0,1,887 ROCKVILLE PIKE,ROCKVILLE,MD,20852
122,HOT POT LEGEND,Alcohol Awareness Certified Person Not On Premises,08/06/2019,100.0,setttled,0,1,595 HUNGERFORD DR.,ROCKVILLE,MD,20850
123,LEDO PIZZA,License Not Properly Displayed,08/19/2019,100.0,setttled,0,1,12619 WISTERIA DRIVE B,GERMANTOWN,MD,20874
124,LA TASCA,Sale To Minor,08/28/2019,1000.0,setttled,0,1,141 GIBBS STREET 305,ROCKVILLE,MD,20850
125,LEDO PIZZA,Alcohol Awareness Certified Person Not On Premises,08/19/2019,100.0,setttled,0,1,12619 WISTERIA DRIVE B,GERMANTOWN,MD,20874
126,NANDO'S PERI PERI - GAITHERSBURG,Records Invoice Violation,08/13/2019,500.0,setttled,0,1,224 BOARDWALK PLACE,GAITHERSBURG,MD,20878
127,SOL AZTECA RESTAURANT,Alcohol Awareness Certified Person Not On Premises,09/04/2019,100.0,setttled,0,1,18129 TOWN CENTER DRIVE,OLNEY,MD,20832
128,MANNEQUIN PLS,Alcohol Awareness Certified Person Not On Premises,09/04/2019,100.0,setttled,0,1,18064 GEORGIA AVE.,OLNEY,MD,20832
129,GAITHERSBURG SUPERMARKET,Employee Records Not Available When Requested,06/05/2019,500.0,none,0,1,220 EAST DIAMOND AVENUE,GAITHERSBURG,MD,20877
130,WATERSHED CAFE,Records Invoice Violation,06/25/2019,200.0,setttled,0,1,19639 FISHER AVENUE,POOLESVILLE,MD,20837
131,WATERSHED CAFE,Alcohol Awareness Certified Person Not On Premises,06/25/2019,100.0,setttled,0,1,19639 FISHER AVENUE,POOLESVILLE,MD,20837
132,KUSSHI,Alcohol Awareness Certified Person Not On Premises,07/16/2019,100.0,setttled,0,1,11826 TRADE ST.,NORTH BETHESDA,MD,20852
133,KUSSHI,Storage,07/16/2019,400.0,setttled,0,1,11826 TRADE ST.,NORTH BETHESDA,MD,20852
134,KUSSHI,Records Invoice Violation,07/19/2019,500.0,setttled,0,1,11826 TRADE ST.,NORTH BETHESDA,MD,20852
135,EL PATIO,License Not Properly Displayed,09/25/2019,100.0,setttled,0,1,5240 RANDOLPH ROAD,ROCKVILLE,MD,20852
136,SLAPFISH,Alcohol Awareness Certified Person Not On Premises,09/25/2019,100.0,setttled,0,1,12033 ROCKVILLE PIKE,ROCKVILLE,MD,20852
137,SLAPFISH,Sale To Minor,09/25/2019,1000.0,setttled,0,1,12033 ROCKVILLE PIKE,ROCKVILLE,MD,20852
138,EL PATIO,Sale To Minor,09/25/2019,2500.0,setttled,0,1,5240 RANDOLPH ROAD,ROCKVILLE,MD,20852
139,EL PATIO,Employee Records Not Available When Requested,09/25/2019,500.0,setttled,0,1,5240 RANDOLPH ROAD,ROCKVILLE,MD,20852
140,SLAPFISH,Employee Records Not Available When Requested,09/25/2019,500.0,setttled,0,1,12033 ROCKVILLE PIKE,ROCKVILLE,MD,20852
142,LA CANELA,Sale To Minor,08/28/2019,1000.0,setttled,0,1,141 GIBBS STREET D,ROCKVILLE,MD,20850
143,GAITHERSBURG SUPERMARKET,Employee Records Not Available When Requested,08/01/2019,500.0,setttled,0,1,220 EAST DIAMOND AVENUE,GAITHERSBURG,MD,20877
144,GAITHERSBURG SUPERMARKET,Alcohol Awareness Certified Person Not On Premises,06/05/2019,500.0,setttled,0,1,220 EAST DIAMOND AVENUE,GAITHERSBURG,MD,20877
145,PIKE CHICKEN & BEER,Alcohol Awareness Certified Person Not On Premises,10/09/2019,100.0,setttled,0,1,1066 ROCKVILLE PIKE,ROCKVILLE,MD,20852
146,GAITHERSBURG SUPERMARKET,License Not Properly Displayed,08/01/2019,100.0,setttled,0,1,220 EAST DIAMOND AVENUE,GAITHERSBURG,MD,20877
147,THE REPUBLIC GARDEN,Dispensing Liquor By Bottle For Consumption Onsite,09/02/2019,1000.0,setttled,0,1,8402 GEORGIA AVE.,SILVER SPRING,MD,20910
148,HICKORY BAR & GRILL,Alcohol Awareness Certified Person Not On Premises,07/15/2019,500.0,setttled,0,1,15420 OLD COLUMBIA PIKE,BURTONSVILLE,MD,20866
149,PIKE CHICKEN & BEER,Sale To Minor,10/09/2019,1000.0,setttled,0,1,1066 ROCKVILLE PIKE,ROCKVILLE,MD,20852
150,GAITHERSBURG SUPERMARKET,Alcohol Awareness Certified Person Not On Premises,08/01/2019,0.0,suspension,0,1,220 EAST DIAMOND AVENUE,GAITHERSBURG,MD,20877
151,GAITHERSBURG SUPERMARKET,Records Invoice Violation,09/09/2019,500.0,setttled,0,1,220 EAST DIAMOND AVENUE,GAITHERSBURG,MD,20877
152,BUFFALO WILD WINGS,Alcohol Awareness Certified Person Not On Premises,08/21/2019,100.0,setttled,0,1,33 MARYLAND AVENUE,ROCKVILLE,MD,20850
153,AKIRA RAMEN IZAKAYA,Sale To Minor,10/09/2019,1000.0,setttled,0,1,1800 ROCKVILLE PIKE UNIT H1,ROCKVILLE,MD,20852
154,AKIRA RAMEN IZAKAYA,License Not Properly Displayed,10/09/2019,100.0,setttled,0,1,1800 ROCKVILLE PIKE UNIT H1,ROCKVILLE,MD,20852
155,AKIRA RAMEN IZAKAYA,Employee Records Not Available When Requested,10/09/2019,500.0,setttled,0,1,1800 ROCKVILLE PIKE UNIT H1,ROCKVILLE,MD,20852
156,BURGERFI,Sale To Minor,10/09/2019,1000.0,setttled,0,1,11881 GRAND PARK AVE.,NORTH BETHESDA,MD,20852
157,ST. ARNOLD'S MUSSEL BAR,Alcohol Awareness Certified Person Not On Premises,10/01/2019,500.0,setttled,0,1,7525 OLD GEORGETOWN ROAD,BETHESDA,MD,20814
158,OM INDIAN RESTAURANT,License Not Properly Displayed,10/09/2019,100.0,setttled,0,1,785 ROCKVILLE PIKE K,ROCKVILLE,MD,20852
159,GEMELLI'S ITALIAN MARKET,License Not Properly Displayed,08/15/2019,100.0,setttled,0,1,12169 DARNESTOWN RD,GAITHERSBURG,MD,20878
160,PALISADES LOUNGE,"Consumption, Possession, Or Sale During Prohibited Hours",01/21/2021,500.0,setttled,0,1,8211 GEORGIA AVE,SILVER SPRING,MD,20910
161,PALISADES LOUNGE,"Consumption, Possession, Or Sale During Prohibited Hours",01/21/2021,1000.0,setttled,0,1,8211 GEORGIA AVE,SILVER SPRING,MD,20910
162,GYROLAND,Sale To Minor,10/09/2019,1000.0,setttled,0,1,1701 ROCKVILLE PIKE B3,ROCKVILLE,MD,20852
163,MATRESHKA,License Not Properly Displayed,08/06/2019,100.0,setttled,0,1,15209 FREDERICK RD.,ROCKVILLE,MD,20850
164,MIKE & SONS SUB SHOP,Sale To Minor,09/25/2019,1000.0,setttled,0,1,5404 RANDOLPH ROAD,ROCKVILLE,MD,20852
165,KALDI'S COFFEE,Disorderly House,11/21/2019,0.0,suspension,0,0,918 SILVER SPRING AVENUE,SILVER SPRING,MD,20910
166,FOOD STOP MINI MART,Sale To Minor,06/04/2019,5000.0,setttled,0,1,4820 BOILING BROOK PARKWAY,ROCKVILLE,MD,20852
167,BALAGGER RESTAURANT,No Enterprise License,10/03/2019,0.0,suspension,0,0,8081 GEORGIA AVE.,SILVER SPRING,MD,20910
168,KALDI'S COFFEE,License Compliance Check,11/21/2019,0.0,suspension,0,0,918 SILVER SPRING AVENUE,SILVER SPRING,MD,20910
169,MIKE & SONS SUB SHOP,License Not Properly Displayed,09/25/2019,100.0,setttled,0,1,5404 RANDOLPH ROAD,ROCKVILLE,MD,20852
170,KALDI'S COFFEE,Acts Contrary To Law,11/21/2019,0.0,suspension,0,0,918 SILVER SPRING AVENUE,SILVER SPRING,MD,20910
171,SALA THAI BETHESDA,Alcohol Awareness Certified Person Not On Premises,12/25/2019,0.0,suspension,0,0,4828 CORDELL AVE.,BETHESDA,MD,20814
172,MATRESHKA,Acts Contrary To Law,08/06/2019,1000.0,setttled,0,1,15209 FREDERICK RD.,ROCKVILLE,MD,20850
173,MIKE & SONS SUB SHOP,Alcohol Awareness Certified Person Not On Premises,09/25/2019,100.0,setttled,0,1,5404 RANDOLPH ROAD,ROCKVILLE,MD,20852
174,GAITHERSBURG SUPERMARKET,Alcohol Awareness Certified Person Not On Premises,09/24/2019,0.0,suspension,0,0,220 EAST DIAMOND AVENUE,GAITHERSBURG,MD,20877
175,MATRESHKA,Sale To Minor,08/06/2019,1000.0,setttled,0,1,15209 FREDERICK RD.,ROCKVILLE,MD,20850
176,KALDI'S COFFEE,Of The Neighborhood,11/21/2019,0.0,suspension,0,0,918 SILVER SPRING AVENUE,SILVER SPRING,MD,20910
177,KALDI'S COFFEE,Responsibility,11/21/2019,0.0,suspension,0,0,918 SILVER SPRING AVENUE,SILVER SPRING,MD,20910
178,BALAGGER RESTAURANT,Prohibited Hours,07/29/2019,0.0,suspension,0,0,8081 GEORGIA AVE.,SILVER SPRING,MD,20910
179,ARADA MARKET,Storage,08/30/2021,4600.0,none,0,1,6844 NEW HAMPSHIRE AVE,TAKOMA PARK,MD,20912
180,SOCIETY RESTAURANT & LOUNGE,Dispensing Of Liquor,05/01/2019,2000.0,setttled,0,1,8229 GEORGIA AVENUE,SILVER SPRING,MD,20910
189,Q' VIVA COCINA & LOUNGE,"Consumption, Possession, Or Sale During Prohibited Hours",09/24/2020,250.0,setttled,0,1,2322 UNIVERSITY BLVD.,SILVER SPRING,MD,20902
190,GOLF ULTRA LOUNGE,Dispensing Of Liquor,03/08/2021,2000.0,none,0,1,8123 GEORGIA AVE,SILVER SPRING,MD,20910
191,GOLF ULTRA LOUNGE,Dispensing Of Liquor,03/08/2021,3000.0,none,0,1,8123 GEORGIA AVE,SILVER SPRING,MD,20910
192,CHERCHER ETHIOPIAN CUISINE,Sales Or Service To Minors/Consumption Or Possession Of Minors,03/13/2020,0.0,none,0,1,4921 BETHESDA AVENUE,BETHESDA,MD,20814
193,HAKUNA MATATA GRILL,"Consumption, Possession, Or Sale During Prohibited Hours",03/08/2021,500.0,setttled,0,1,2405 PRICE AVE.,SILVER SPRING,MD,20902
195,GISELE'S CREOLE CUISINE,Storage,04/08/2022,200.0,none,0,1,2407 PRICE AVENUE,SILVER SPRING,MD,20902
196,TIA QUETA RESTAURANT,Sales Or Service To Minors/Consumption Or Possession Of Minors,09/11/2020,0.0,none,0,1,4839 DEL RAY AVE,BETHESDA,MD,20814
198,EN BISTRO AND SUSHI,Alcohol Awareness Certification,08/30/2021,100.0,setttled,0,1,9945 FALLS ROAD,POTOMAC,MD,20854
204,THE LITTLE BEET TABLE,Sales Or Service To Minors/Consumption Or Possession Of Minors,03/05/2020,1000.0,none,0,1,5471 WISCONSIN AVENUE UNIT F,CHEVY CHASE,MD,20815
205,A BITE OF CHINA,Sales Or Service To Minors/Consumption Or Possession Of Minors,03/27/2020,1000.0,none,0,1,15106A FREDERICK RD,ROCKVILLE,MD,20850
206,RINCON MAGICO BAR & GRILL,Sales Or Service To Minors/Consumption Or Possession Of Minors,09/11/2020,1000.0,none,0,1,4217 RANDOLPH ROAD,SILVER SPRING,MD,20906
207,HAKUNA MATATA GRILL,Sales Or Service To Minors/Consumption Or Possession Of Minors,03/28/2020,1000.0,none,0,1,2405 PRICE AVE.,SILVER SPRING,MD,20902
208,VUK,Sales Or Service To Minors/Consumption Or Possession Of Minors,03/20/2020,1000.0,none,0,1,4924 ST. ELMO AVE,BETHESDA,MD,20814
209,"ARIA, BEER, WINE & DELI",Display Of License,04/02/2020,100.0,none,0,1,4800 AUBURN AVENUE,BETHESDA,MD,20814
210,DOWNTOWN CROWN WINE & BEER,Sales Or Service To Minors/Consumption Or Possession Of Minors,04/08/2022,1000.0,none,0,1,303 COPLEY PLACE,GAITHERSBURG,MD,20878
211,JALEO,Sales Or Service To Minors/Consumption Or Possession Of Minors,09/11/2020,1000.0,none,0,1,7271 WOODMONT AVE,BETHESDA,MD,20814
212,THE REPUBLIC GARDEN,Dispensing Of Liquor,02/11/2021,7500.0,none,0,1,8402 GEORGIA AVENUE,SILVER SPRING,MD,20910
213,THE REPUBLIC GARDEN,Dispensing Of Liquor,02/11/2021,7500.0,none,0,1,8402 GEORGIA AVENUE,SILVER SPRING,MD,20910
214,THE REPUBLIC GARDEN,Dispensing Of Liquor,02/11/2021,7500.0,none,0,1,8402 GEORGIA AVENUE,SILVER SPRING,MD,20910
215,"ARIA, BEER, WINE & DELI",Sales Or Service To Minors/Consumption Or Possession Of Minors,04/02/2020,1000.0,none,0,1,4800 AUBURN AVENUE,BETHESDA,MD,20814
216,"GLENMONT BEER, WINE & DELI",Acts Contrary To Law,05/01/2019,5000.0,setttled,0,1,12351 GEORGIA AVE,SILVER SPRING,MD,20906
220,DEMPSEYS OF ASHTON,Records Violation,04/08/2022,500.0,setttled,0,1,1 OLNEY SANDY SPRING ROAD,ASHTON,MD,20861
221,A BITE OF CHINA,Records Violation,03/27/2020,500.0,none,0,1,15106A FREDERICK RD,ROCKVILLE,MD,20850
222,VILLAGE WEST LIQUOR,Records Violation,01/21/2021,500.0,setttled,0,1,19520 WATERS ROAD,GERMANTOWN,MD,20876
223,GISELE'S CREOLE CUISINE,Records Violation,04/08/2022,500.0,none,0,1,2407 PRICE AVENUE,SILVER SPRING,MD,20902
224,MONTGOMERY VILLAGE BEER & WINE,Sales Or Service To Intoxicated Persons/Consumption Or Possession By Intoxicated Persons,03/09/2020,1000.0,setttled,0,1,18286 CONTOUR ROAD,GAITHERSBURG,MD,20879
225,RINCON MAGICO BAR & GRILL,Records Violation,09/11/2020,500.0,none,0,1,4217 RANDOLPH ROAD,SILVER SPRING,MD,20906
226,EN BISTRO AND SUSHI,Records Violation,08/30/2021,0.0,setttled,0,1,9945 FALLS ROAD,POTOMAC,MD,20854
227,EL AGUILA,Sale To Minor,05/02/2018,1000.0,setttled,0,1,7926 GEORGIA AVENUE,SILVER SPRING,MD,20910
228,BACCHUS OF LEBANON,Sale To Minor,12/01/2017,1000.0,setttled,0,1,7945 NORFOLK AVE.,BETHESDA,MD,20814
229,BAR LOUIE,Sale To Minor,12/10/2018,2500.0,setttled,0,1,150 GIBBS STREET,ROCKVILLE,MD,20850
230,NOODLES & COMPANY,Alcohol Awareness Certified Person Not On Premises,07/01/2016,100.0,setttled,0,1,177 KENTLANDS BLVD. SUITE 100,GAITHERSBURG,MD,20878
231,PASHA LAND,Sale To Minor,06/22/2016,1000.0,setttled,0,1,644 CENTER POINT WAY,GAITHERSBURG,MD,20878
232,TGI FRIDAYS,Alcohol Awareness Certified Person Not On Premises,09/04/2018,100.0,setttled,0,1,12281 TECH ROAD,SILVER SPRING,MD,20904
233,FUSION BAR & GRILL,Dispensing Liquor By Bottle For Consumption Onsite,10/05/2016,0.0,hearing,1,0,15535 NEW HAMPSHIRE AVENUE,SILVER SPRING,MD,20905
234,SPICE XING,Sale To Minor,03/25/2019,2500.0,setttled,0,1,100 GIBBS STREET B,ROCKVILLE,MD,20850
235,NANDO'S PERI PERI,License Not Properly Displayed,09/10/2018,100.0,setttled,0,1,4839 BETHESDA AVENUE,BETHESDA,MD,20814
236,SUMMER HOUSE SANTA MONICA/STELLA BARRA PIZZERIA,Sale To Minor,10/30/2017,1000.0,setttled,0,1,11825 GRANDPARK AVENUE,ROCKVILLE,MD,20852
237,EGGSPECTATION,Sale To Minor,11/29/2017,1000.0,setttled,0,1,923 ELLSWORTH DRIVE,SILVER SPRING,MD,20910
238,MONTGOMERY VILLAGE BEER & WINE,Sale To Minor,09/04/2018,1000.0,setttled,0,1,18286 CONTOUR RD,GAITHERSBURG,MD,20879
239,JAVA NATION,Alcohol Awareness Certified Person Not On Premises,09/06/2016,500.0,setttled,0,1,10516 CONNECTICUT,KENSINGTON,MD,20895
240,RIVERSIDE HOTPOT CUISINE,Sale To Minor,08/13/2018,1000.0,setttled,0,1,820 MUDDY BRANCH ROAD,GAITHERSBURG,MD,20878
241,VIET PHO & GRILL,Alcohol Awareness Certified Person Not On Premises,09/22/2016,100.0,setttled,0,1,1640 ELTON ROAD,SILVER SPRING,MD,20903
242,GODAVARI,Employee Records Not Available When Requested,04/26/2018,500.0,setttled,0,1,9011 GAITHER ROAD,GAITHERSBURG,MD,20877
243,ERTA ALE RESTAURANT & CAFE,Alcohol Awareness Certified Person Not On Premises,06/15/2017,500.0,setttled,0,1,2310 PRICE AVENUE,WHEATON,MD,20902
244,LIMARIA POLLO A LA BRASA,Alcohol Awareness Certified Person Not On Premises,08/13/2018,100.0,setttled,0,1,74 BUREAU DRIVE,GAITHERSBURG,MD,20878
245,POCKET BAR & GRILL,Acts Contrary To Law,02/15/2018,500.0,setttled,0,1,15535 NEW HAMPSHIRE AVENUE,SILVER SPRING,MD,20905
246,LUCY ETHIOPIAN RESTAURANT,Employee Records Not Available When Requested,04/11/2018,500.0,setttled,0,1,8301 GEORGIA AVENUE,SILVER SPRING,MD,20910
247,TOKYO SUSHI,Sale To Minor,08/15/2018,1000.0,setttled,0,1,18301 LEAMAN RD,GERMANTOWN,MD,20874
248,BRIGGS CHANEY DELI,Sale To Minor,11/06/2017,1000.0,setttled,0,1,13832 OUTLET DRIVE,SILVER SPRING,MD,20904
249,DON JORGE'S RESTAURANT BAR & GRILL,Sale To Minor,11/21/2018,1000.0,setttled,0,1,108 EAST DIAMOND AVE,GAITHERSBURG,MD,20877
250,THE HILTON AT GAITHERSBURG,Sale To Minor,10/18/2018,1000.0,setttled,0,1,620 PERRY PKWY.,GAITHERSBURG,MD,20877
251,RATTLEWOOD GOLF COURSE,Sale To Minor,11/08/2017,1000.0,setttled,0,1,13501 PENN SHOP ROAD,DAMASCUS,MD,20872
252,6/12 CONVENIENT MART,Sale To Minor,12/21/2016,2500.0,setttled,0,1,14100 DARNESTOWN ROAD C,DARNESTOWN,MD,20874
253,ROSSMOOR LEISURE WORLD,Application - Failure To Update,06/07/2017,2000.0,setttled,0,1,3700 ROSSMOOR BLVD.,SILVER SPRING,MD,20906
254,CITY TASTE ASIAN CUISINE,Employee Records Not Available When Requested,08/09/2018,500.0,setttled,0,1,930 WAYNE AVE,SILVER SPRING,MD,20910
255,GREGORIO'S TRATTORIA,Sale To Minor,02/01/2017,1000.0,setttled,0,1,7745 TUCKERMAN LANE,POTOMAC,MD,20854
256,HONEY PIG,Sale To Minor,09/20/2018,1000.0,setttled,0,1,19727 FREDERICK ROAD,GERMANTOWN,MD,20876
257,7-ELEVEN GLEN ECHO,Sale To Minor,12/08/2017,1000.0,setttled,0,1,7305 MACARTHUR BLVD,BETHESDA,MD,20816
258,SMASHBURGER,Alcohol Awareness Certified Person Not On Premises,03/31/2016,500.0,setttled,0,1,20640 SENECA MEADOWS PARKWAY D1,GERMANTOWN,MD,20867
259,BARKING MAD CAFE,License Not Properly Displayed,08/30/2016,100.0,setttled,0,1,239 SPECTRUM AVENUE,GAITHERSBURG,MD,20879
260,DOCK OF THE BAY,Sale To Minor,09/28/2018,2500.0,setttled,0,1,429 S. FREDERICK ROAD,GAITHERSBURG,MD,20877
261,H RESTAURANT AND NIGHT CLUB,Dispensing Liquor By Bottle For Consumption Onsite,07/19/2017,1000.0,setttled,0,1,11300 GEORGIA AVENUE,WHEATON,MD,20902
262,MATCHBOX,Sale To Minor,12/10/2018,1000.0,setttled,0,1,1699 ROCKVILLE PIKE,ROCKVILLE,MD,20852
263,TURNTABLE,Alcohol After Permitted Hours,11/30/2017,1000.0,setttled,0,1,4862 CORDELL AVENUE,BETHESDA,MD,20814
264,NAGOYA SUSHI,Sale To Minor,03/31/2017,2500.0,setttled,0,1,402 KING FARM BLVD. 130,ROCKVILLE,MD,20850
265,EL ENCANTO,Records Invoice Violation,06/06/2018,500.0,setttled,0,1,8035 SNOUFFER SCHOOL ROAD,GAITHERSBURG,MD,20879
266,DULCINEA BAR & GRILL,Sale To Minor,06/30/2016,1000.0,setttled,0,1,9103 GAITHER ROAD,GAITHERSBURG,MD,20877
267,THE DISH & DRAM,Sale To Minor,09/21/2017,1000.0,setttled,0,1,10301 KENSINGTON PKWY,KENSINGTON,MD,20895
268,CAVA RESTAURANT,Sale To Minor,12/03/2018,1000.0,setttled,0,1,9713 TRAVILLE GATEWAY DRIVE,ROCKVILLE,MD,20850
269,FONTINA GRILLE,License Not Properly Displayed,08/10/2017,100.0,setttled,0,1,801 PLEASANT DRIVE,ROCKVILLE,MD,20850
270,DOWNTOWN CROWN WINE & BEER,Alcohol Awareness Certified Person Not On Premises,11/29/2016,100.0,setttled,0,1,303 COPLEY PLACE,GAITHERSBURG,MD,20878
271,FUDDRUCKERS,Sale To Minor,03/07/2017,1000.0,setttled,0,1,1592 ROCKVILLE PIKE A,ROCKVILLE,MD,20852
272,KAYPI RESTAURANT,Employee Records Not Available When Requested,12/01/2017,500.0,setttled,0,1,2005 VEIRS MILL ROAD,ROCKVILLE,MD,20851
273,GLENMONT BEER WINE & DELI,Sale To Minor,05/16/2017,1000.0,setttled,0,1,12351 GEORGIA AVE.,WHEATON,MD,20906
274,PERUVIAN COUNTRY CHICKEN,Employee Records Not Available When Requested,01/30/2018,500.0,setttled,0,1,10118 COLESVILLE ROAD,SILVER SPRING,MD,20901
275,CAFE PROMENADE,Sale To Minor,04/27/2018,1000.0,setttled,0,1,5225 POOKS HILL ROAD,BETHESDA,MD,20814
276,EL ESTERON RESTAURANT,Alcohol Awareness Certified Person Not On Premises,07/19/2018,100.0,setttled,0,1,8500 DAKOTA DRIVE,GAITHERSBURG,MD,20878
277,BAR LOUIE,Employee Records Not Available When Requested,06/20/2017,500.0,setttled,0,1,150 GIBBS STREET,ROCKVILLE,MD,20850
278,MEZEH MEDITERRANEAN GRILL,Alcohol Awareness Certified Person Not On Premises,10/30/2018,100.0,setttled,0,1,262 CROWN PARK AVENUE,GAITHERSBURG,MD,20878
279,MI RANCHO-ROCKVILLE,Sale To Minor,02/27/2017,1000.0,setttled,0,1,1488 ROCKVILLE PIKE B,ROCKVILLE,MD,20852
280,SMASHBURGER (ROCKVILLLE),Sale To Minor,04/28/2017,1000.0,setttled,0,1,1800 ROCKVILLE PIKE,ROCKVILLE,MD,20852
281,CANOPY,Age Of Employee Violation,12/12/2018,1000.0,setttled,0,1,940 ROSE AVE,NORTH BETHESDA,MD,20852
282,LA MADELEINE-CROWN,Sale To Minor,09/13/2018,1000.0,setttled,0,1,242 CROWN PARK AVE,GAITHERSBURG,MD,20878
283,DON POLLO-GERMANTOWN,Sale To Minor,09/11/2018,1000.0,setttled,0,1,21040 A FREDERICK RD,GERMANTOWN,MD,20876
284,HONEY PIG,License Not Properly Displayed,02/22/2019,100.0,setttled,0,1,12015 ROCKVILLE PIKE #G,ROCKVILLE,MD,20852
285,PHO TAN VINH,Sale To Minor,09/11/2018,1000.0,setttled,0,1,8705 COLESVILLE RD,SILVER SPRING,MD,20910
286,ASI ES MI TIERRA,Employee Records Not Available When Requested,06/08/2017,500.0,setttled,0,1,2559 ENNALLS AVENUE,WHEATON,MD,20902
287,BUFFALO WILD WINGS,Sale To Minor,02/19/2019,1000.0,setttled,0,1,33 MARYLAND AVENUE,ROCKVILLE,MD,20850
288,BURGERFI,Sale To Minor,05/06/2016,1000.0,setttled,0,0,8504 FENTON STREET,SILVER SPRING,MD,20910
289,JAVA NATION,Alcohol Awareness Certified Person Not On Premises,03/23/2016,100.0,setttled,0,1,10516 CONNECTICUT,KENSINGTON,MD,20895
290,DOWNTOWN BEER AND WINE,Sale To Minor,02/28/2017,1000.0,setttled,0,1,5751 E FISHER LANE,ROCKVILLE,MD,20852
291,BUCA DI BEPPO,Alcohol Awareness Certified Person Not On Premises,02/27/2018,100.0,setttled,0,1,122 KENTLANDS BLVD.,GAITHERSBURG,MD,20878
292,LIMARIA POLLO A LA BRASA,Records Invoice Violation,08/13/2018,500.0,setttled,0,1,74 BUREAU DRIVE,GAITHERSBURG,MD,20878
293,LE PAIN QUOTIDIEN,Sale To Minor,04/04/2018,10000.0,setttled,0,1,7140 BETHESDA LANE,BETHESDA,MD,20814
294,SILVER SPRING MART,Sale To Minor,01/08/2018,1000.0,setttled,0,1,8211 FENTON,SILVER SPRING,MD,20910
295,HYATT SUMMERFIELD SUITES,Sale To Minor,06/24/2016,2500.0,setttled,0,1,200 SKIDMORE BOULEVARD,GAITHERSBURG,MD,20877
296,BIG WAN'S CUISINE,Alcohol Awareness Certified Person Not On Premises,02/06/2016,0.0,hearing+suspension,0,0,16051 FREDERICK ROAD,ROCKVILLE,MD,20855
297,BANGKOK GARDEN RESTAURANT,Sale To Minor,10/13/2017,2500.0,setttled,0,1,4906 SAINT ELMO AVE.,BETHESDA,MD,20814
298,SALA THAI BETHESDA,Alcohol Awareness Certified Person Not On Premises,10/20/2017,500.0,setttled,0,1,4828 CORDELL AVE.,BETHESDA,MD,20814
299,DOCK OF THE BAY,Sale To Minor,06/22/2016,1000.0,setttled,0,1,429 S. FREDERICK ROAD,GAITHERSBURG,MD,20877
300,BOMBAY INDIAN RESTAURANT,Alcohol Awareness Certified Person Not On Premises,10/10/2016,100.0,setttled,0,1,11229 NEW HAMPSHIRE AVENUE,SILVER SPRING,MD,20904
301,IRENE'S PUPUSAS,Alcohol Awareness Certified Person Not On Premises,02/16/2017,500.0,hearing+suspension,0,1,12391 GEORGIA AVENUE,SILVER SPRING,MD,20906
302,ERTA ALE RESTAURANT & CAFE,Sale To Minor,06/15/2017,1000.0,setttled,0,1,2310 PRICE AVENUE,WHEATON,MD,20902
303,COURTYARD BY MARRIOTT,Sale To Minor,04/12/2017,1000.0,setttled,0,1,2500 RESEARCH BOULEVARD,ROCKVILLE,MD,20850
304,GEMELLI'S ITALIAN MARKET,Sale To Minor,09/20/2018,1000.0,setttled,0,1,12169 DARNESTOWN RD,GAITHERSBURG,MD,20878
305,MIX BAR & GRILLE,License Not Properly Displayed,12/01/2017,100.0,setttled,0,1,9812 FALLS RD,POTOMAC,MD,20854
306,LITTLE BENNETT GOLF COURSE,Sale To Minor,08/30/2018,1000.0,setttled,0,1,25900 PRESCOTT ROAD,CLARKSBURG,MD,20871
307,CAFE 20/20,Alcohol Awareness Certified Person Not On Premises,03/10/2017,500.0,setttled,0,1,4880 BOILING BROOK PARKWAY,ROCKVILLE,MD,20852
308,BECLAWS,Records Invoice Violation,10/18/2018,500.0,setttled,0,1,2404 UNIVERSITY BOULEVARD,SILVER SPRING,MD,20902
309,CAFE 20/20,Alcohol Awareness Certified Person Not On Premises,01/24/2017,100.0,setttled,0,1,4880 BOILING BROOK PARKWAY,ROCKVILLE,MD,20852
310,OUTBACK STEAKHOUSE,Sale To Minor,04/24/2017,1000.0,setttled,0,1,13703 GEORGIA AVEUE,SILVER SPRING,MD,20906
311,SUSHI OISHII,Sale To Minor,04/18/2017,1000.0,setttled,0,1,9706 TRAVILLE GATEWAY DRIVE,ROCKVILLE,MD,20850
312,SUMMIT HILLS MINI MART,Sale To Minor,10/23/2017,1000.0,setttled,0,1,8518 16TH STREET,SILVER SPRING,MD,20910
313,"BEST BEER, WINE, & DELI",To Intoxicated Patron,07/21/2016,1000.0,hearing,0,1,18749 NORTH FREDERICK AVENUE A,GAITHERSBURG,MD,20879
314,HOLLYWOOD EAST CAFE - WESTFIELD,Sale To Minor,06/05/2017,1000.0,setttled,0,1,11160 VEIRS MILL ROAD SPACE 136,WHEATON,MD,20902
315,RUBY TUESDAY,Sale To Minor,07/06/2016,1000.0,setttled,0,1,701 RUSSELL AVE.,GAITHERSBURG,MD,20877
316,EL NORTENO,Employee Records Not Available When Requested,05/25/2016,500.0,setttled,0,1,8917 BROOKVILLE ROAD,SILVER SPRING,MD,20910
317,CANCUN MEXICAN CUISINE,Responsibility,11/06/2017,500.0,setttled,0,1,117 E. DIAMOND AVE.,GAITHERSBURG,MD,20877
318,& PIZZA,License Not Properly Displayed,08/12/2016,100.0,setttled,0,1,11626 OLD GEORGETOWN ROAD,NORTH BETHESDA,MD,20852
319,GENTLEMAN JIM'S RESTAURANT,Alcohol After Permitted Hours,11/09/2017,1000.0,setttled,0,1,18917 EARHART COURT,GAITHERSBURG,MD,20879
320,TEXAS PARRILLADA,Disorderly House,08/04/2016,0.0,hearing,0,0,9631 LOST KNIFE ROAD,GAITHERSBURG,MD,20879
321,THAI TASTE,Sale To Minor,05/23/2017,1000.0,setttled,0,1,11315 FERN STREET,WHEATON,MD,20902
322,CANCUN MEXICAN CUISINE,Employee Records Not Available When Requested,11/06/2017,500.0,setttled,0,1,117 E. DIAMOND AVE.,GAITHERSBURG,MD,20877
323,TED'S MONTANA GRILL,Sale To Minor,07/11/2016,1000.0,setttled,0,1,105 ELLINGTON BOULEVARD,GAITHERSBURG,MD,20878
324,SARITA'S CHICKEN RESTAURANT,Alcohol Awareness Certified Person Not On Premises,04/28/2017,0.0,setttled,0,1,2545 ENNALLS AVENUE,WHEATON,MD,20904
325,MAMMA LUCIA,Sale To Minor,10/25/2017,1000.0,setttled,0,1,1302 EAST WEST HGWY.,SILVER SPRING,MD,20910
326,POLLO-MEX,Alcohol Awareness Certified Person Not On Premises,07/07/2017,500.0,setttled,0,1,13436 NEW HAMPSHIRE AVENUE,SILVER SPRING,MD,20904
327,BAR LOUIE,Sale To Minor,06/20/2017,1000.0,setttled,0,1,150 GIBBS STREET,ROCKVILLE,MD,20850
328,TARA THAI- MONTGOMERY MALL,Alcohol Awareness Certified Person Not On Premises,05/01/2017,100.0,setttled,0,1,7101 DEMOCRACY BLVD,BETHESDA,MD,20814
329,LA FOGATA RESTAURANT,Sale To Minor,04/24/2017,1000.0,setttled,0,1,2259 BEL PRE ROAD,SILVER SPRING,MD,20906
330,"CANCUN GRILL RESTAURANT, THE",Sale To Minor,04/28/2016,3000.0,setttled,0,1,11220 GEORGIA AVENUE,WHEATON,MD,20902
331,PINSTRIPES,Sale To Minor,12/03/2018,1000.0,setttled,0,1,11920 GRAND PARK AVE.,NORTH BETHESDA,MD,20852
332,KOREAN KORNER,Sale To Minor,10/04/2017,1000.0,setttled,0,1,12207 VEIRS MILL ROAD,WHEATON,MD,20906
333,ATTMAN'S DELI,Alcohol Awareness Certified Person Not On Premises,05/01/2017,100.0,setttled,0,1,7913 TUCKERMAN LANE,POTOMAC,MD,20854
334,TARA THAI RESTAURANT,Sale To Minor,09/28/2018,2500.0,setttled,0,1,9811 WASHINGTONIAN BLVD.,GAITHERSBURG,MD,20878
335,TWINBROOK DELICATESSEN,Sale To Minor,02/03/2017,2500.0,setttled,0,0,2208 VEIRS MILL ROAD,ROCKVILLE,MD,20851
336,BHIMAS KITCHEN & BAKERY,Sale To Minor,03/20/2019,1000.0,setttled,0,1,13541 CLOPPER RD.,GERMANTOWN,MD,20874
337,7  ELEVEN FOOD STORE 11713A,Employee Records Not Available When Requested,04/19/2018,500.0,setttled,0,1,14101 GEORGIA AVE.,WHEATON,MD,20906
338,PERUVIAN CHICKEN & GRILL,Age Of Employee Violation,08/09/2018,1000.0,setttled,0,1,26400 RIDGE RD,DAMASCUS,MD,20872
339,ZIKI JAPANESE STEAK HOUSE,Sale To Minor,09/26/2018,1000.0,setttled,0,1,10009 FIELDS ROAD,GAITHERSBURG,MD,20878
340,LA CASITA,Employee Records Not Available When Requested,12/19/2016,500.0,setttled,0,1,2 EAST DIAMOND AVENUE,GAITHERSBURG,MD,20877
341,GORDON BIERSCH BREWERY RESTAURANT,Alcohol Awareness Certified Person Not On Premises,09/22/2017,100.0,setttled,0,1,200 EAST MIDDLE LANE UNIT A,ROCKVILLE,MD,20850
342,OLAZZO RESTAURANT,Sale To Minor,03/22/2018,1000.0,setttled,0,1,8235 GEORGIA AVENUE,SILVER SPRING,MD,20910
343,H RESTAURANT AND NIGHT CLUB,Disorderly House,07/19/2017,2500.0,setttled,0,1,11300 GEORGIA AVENUE,WHEATON,MD,20902
344,ARADA MARKET,Sale To Minor,02/08/2018,1000.0,setttled,0,1,6844 NEW HAMPSHIRE AVE,TAKOMA PARK,MD,20912
345,THE QUARRY HOUSE TAVERN,Sale To Minor,12/10/2018,1000.0,setttled,0,1,8401 GEORGIA AVE.,SILVER SPRING,MD,20910
346,TOKYO FIRE,Sale To Minor,09/06/2018,1000.0,setttled,0,0,9811 MAIN ST SUITE 101,DAMASCUS,MD,20872
347,LEDO PIZZA,Sale To Minor,04/11/2018,1000.0,setttled,0,1,10301 WESTLAKE DRIVE,BETHESDA,MD,20817
348,GRINGOS & MARIACHIS,Sale To Minor,02/01/2018,1000.0,setttled,0,1,4928 CORDELL AVENUE,BETHESDA,MD,20814
349,SHEGER SPRING CAFE,Sale To Minor,03/02/2016,2500.0,setttled,0,1,900 SILVER SPRING AVENUE SUITE B,SILVER SPRING,MD,20910
350,FUSION BAR & GRILL,Acts Contrary To Law,10/05/2016,0.0,hearing,1,0,15535 NEW HAMPSHIRE AVENUE,SILVER SPRING,MD,20905
351,NORTHWEST PARK GOLF SNACK BAR,Sale To Minor,12/06/2017,1000.0,setttled,0,1,15701 LAYHILL ROAD,SILVER SPRING,MD,20906
352,MYTHOS MEDITTERANEAN GREEK RESTAURANT,Sale To Minor,10/10/2018,1000.0,setttled,0,1,8371 SNOUFFER SCHOOL ROAD,GAITHERSBURG,MD,20879
353,GUAPO'S,Refilling Empty/Partially Empty Alcoholic Bottles,07/11/2016,800.0,setttled,0,1,411 NORTH FREDERICK AVE,GAITHERSBURG,MD,20878
354,AY JALISCO,Sale To Minor,10/23/2018,1000.0,setttled,0,1,8401 SNOUFFER SCHOOL ROAD,GAITHERSBURG,MD,20879
355,BEATESUB MARKET & CARRYOUT,Employee Records Not Available When Requested,03/12/2018,500.0,setttled,0,1,8201 GEORGIA AVE,SILVER SPRING,MD,20910
356,VASILI'S KITCHEN,Sale To Minor,09/06/2017,1000.0,setttled,0,1,705 CENTER POINT WAY,GAITHERSBURG,MD,20878
357,MIX BAR & GRILLE,Sale To Minor,02/09/2018,1000.0,setttled,0,1,8241 GEORGIA AVENUE,SILVER SPRING,MD,20910
358,CITY TASTE ASIAN CUISINE,Sale To Minor,08/09/2018,1000.0,setttled,0,1,930 WAYNE AVE,SILVER SPRING,MD,20910
359,VILLAGE BEER & WINE,Alcohol Awareness Certified Person Not On Premises,03/26/2018,100.0,setttled,0,1,5526 NORBECK ROAD,ROCKVILLE,MD,20853
360,TEXAS PARRILLADA,Patron Leaving Premise With Open Alcohol Container,08/04/2016,0.0,hearing,0,0,9631 LOST KNIFE ROAD,GAITHERSBURG,MD,20879
361,THE BARKING DOG,Sale To Minor,06/16/2016,9000.0,hearing,0,0,4723 ELM STREET,BETHESDA,MD,20814
362,SALA THAI BETHESDA,Sale To Minor,10/20/2017,1000.0,setttled,0,1,4828 CORDELL AVE.,BETHESDA,MD,20814
363,LUCY ETHIOPIAN RESTAURANT,Sale To Minor,06/13/2018,2500.0,setttled,0,1,8301 GEORGIA AVENUE,SILVER SPRING,MD,20910
364,CORK & FORK,Sale To Minor,11/30/2017,2500.0,none,0,1,7110 BETHESDA LANE,BETHESDA,MD,20814
365,GRINGOS & MARIACHIS,Sale To Minor,02/05/2019,1000.0,setttled,0,1,12435 POTOMAC AVE D R6,POTOMAC,MD,20854
366,TRAPEZARIA MEDITERRANEAN KUZINA,Sale To Minor,02/23/2017,1000.0,setttled,0,1,11 NORTH WASHINGTON STREET,ROCKVILLE,MD,20850
367,& PIZZA,Alcohol Awareness Certified Person Not On Premises,12/21/2016,100.0,setttled,0,1,11626 OLD GEORGETOWN ROAD,NORTH BETHESDA,MD,20852
368,SUYAMASTER,Sale To Minor,02/12/2018,1000.0,setttled,0,1,2302 PRICE AVENUE,WHEATON,MD,20902
369,PIZZA CS,Sale To Minor,05/07/2017,1000.0,setttled,0,1,1596 ROCKVILLE PIKE,ROCKVILLE,MD,20850
370,PETER CHANG'S CHINA BISTRO,Alcohol Awareness Certified Person Not On Premises,06/23/2016,100.0,setttled,0,1,20 MARYLAND AVENUE,ROCKVILLE,MD,20850
371,GENTLEMAN JIM'S RESTAURANT,Alcohol After Permitted Hours,11/09/2017,1000.0,setttled,0,1,18917 EARHART COURT,GAITHERSBURG,MD,20879
372,CHOICE MARKET,Sale To Minor,09/13/2018,1000.0,setttled,0,1,18700 WALKERS CHOICE RD,MONTGOMERY VILLAGE,MD,20886
373,WOODMOOR SUPERMARKET,Sale To Minor,01/29/2018,1000.0,setttled,0,1,10129 COLESVILLE ROAD,SILVER SPRING,MD,20901
374,OLD TOWN POUR HOUSE,Disorderly House,04/26/2018,1000.0,setttled,0,1,212 ELLINGTON BOULEVARD,GAITHERSBURG,MD,20878
375,BRIGHTON BEER & WINE,Window Tinting,12/27/2016,500.0,setttled,0,1,225 MUDDY BRANCH ROAD,GAITHERSBURG,MD,20878
376,GOURMET INSPIRATIONS,Sale To Minor,05/30/2017,1000.0,setttled,0,1,2646 UNIVERSITY BLVD,WHEATON,MD,20902
377,KOI ASIAN CUISINE,Employee Records Not Available When Requested,05/23/2016,500.0,setttled,0,1,12046 CHERRY HILL ROAD,SILVER SPRING,MD,20904
378,TIA QUETA RESTAURANT,Sale To Minor,03/26/2018,1000.0,setttled,0,1,4839 DEL RAY AVE.,BETHESDA,MD,20814
379,PANDORA SEAFOOD HOUSE,License Not Properly Displayed,06/01/2018,100.0,setttled,0,1,36 A MARYLAND AVENUE,ROCKVILLE,MD,20850
380,MONTEREY MART & CAFE,Sale To Minor,02/06/2019,1000.0,setttled,0,1,5901 5901 MONTROSE RD.,ROCKVILLE,MD,20852
381,DUCK DUCK GOOSE,Sale To Minor,11/30/2017,1000.0,setttled,0,1,7929 NORFOLK GOOSE,BETHESDA,MD,20814
382,ISLAND PRIDE OASIS,Sale To Minor,11/20/2018,1000.0,setttled,0,1,617 SOUTH FREDERICK AVENUE,GAITHERSBURG,MD,20877
383,AMY TEX-MEX BAR AND GRILL,Sale To Minor,09/10/2018,1000.0,setttled,0,1,621 SLIGO AVE,SILVER SPRING,MD,20910
384,CLYDES TOWER OAKS LODGE,Patron Leaving Premise With Open Alcohol Container,12/18/2017,500.0,setttled,0,1,2 PRESERVE PKWY.,ROCKVILLE,MD,20852
385,ETCHIONS COUNTRY STORE,Sale To Minor,11/06/2018,2500.0,setttled,0,1,7000 DAMASCUS ROAD,GAITHERSBURG,MD,20882
386,BIG WAN'S CUISINE,Alcohol Awareness Certified Person Not On Premises,08/23/2016,500.0,hearing,0,0,16051 FREDERICK ROAD,ROCKVILLE,MD,20855
387,"MILESTONE BEER, WINE & DELI",Sale To Minor,02/10/2017,1000.0,setttled,0,1,21030 FREDERICK ROAD D,GERMANTOWN,MD,20876
388,217 BOARDWALK PL.,Sale To Minor,12/18/2018,1000.0,setttled,0,1,217 BOARDWALK PL.,GAITHERSBURG,MD,20878
389,PRIME BEER & WINE,Employee Records Not Available When Requested,07/11/2018,500.0,setttled,0,1,12842 NEW HAMPSHIRE AVE,SILVER SPRING,MD,20904
390,EL NORTENO,Sale To Minor,05/25/2016,2500.0,setttled,0,1,8917 BROOKVILLE ROAD,SILVER SPRING,MD,20910
391,BAR LOUIE,Patron Leaving Premise With Open Alcohol Container,06/20/2017,500.0,setttled,0,1,150 GIBBS STREET,ROCKVILLE,MD,20850
392,RED LOBSTER-GAITHERSBURG,Sale To Minor,07/18/2016,1000.0,setttled,0,1,15700 SHADY GROVE ROAD,GAITHERSBURG,MD,20877
393,TARA THAI RESTAURANT,Employee Records Not Available When Requested,09/28/2018,500.0,setttled,0,1,9811 WASHINGTONIAN BLVD.,GAITHERSBURG,MD,20878
394,CURRY PLACE,License Not Properly Displayed,01/30/2018,100.0,setttled,0,1,12951 WISTERIA DRIVE,GERMANTOWN,MD,20874
395,COURTYARD BY MARRIOTT,Sale To Minor,11/08/2018,2500.0,setttled,0,1,204 BOARDWALK PLACE,GAITHERSBURG,MD,20878
396,BESTWAY MARYLAND SUPERMKT.,Sale To Minor,05/04/2016,2500.0,setttled,0,1,8540 PINEY BRANCH ROAD,SILVER SPRING,MD,20901
397,CHEESE & WINE SHOPPE,To Intoxicated Patron,06/29/2016,1000.0,setttled,0,1,2501 ENNALLS AVE.,WHEATON,MD,20902
398,& PIZZA,Sale To Minor,01/03/2017,1000.0,setttled,0,1,19823 CENTURY BOULEVARD,GERMANTOWN,MD,20874
399,PHOLUSCIOUS,Alcohol Awareness Certified Person Not On Premises,02/08/2018,100.0,setttled,0,1,10048 DARNESTOWN ROAD,ROCKVILLE,MD,20850
400,MUSSEL BAR BY RW,Sale To Minor,10/12/2017,1000.0,setttled,0,1,7262 WOODMONT AVENUE,BETHESDA,MD,20814
401,GENTLEMAN JIM'S RESTAURANT,Alcohol Awareness Certified Person Not On Premises,11/09/2017,100.0,setttled,0,1,18917 EARHART COURT,GAITHERSBURG,MD,20879
402,LEBANESE TAVERNA,Alcohol Awareness Certified Person Not On Premises,11/30/2017,100.0,setttled,0,1,7141 ARLINGTON ROAD,BETHESDA,MD,20814
403,GREAT SHOALS,Alcohol Awareness Certified Person Not On Premises,09/18/2018,100.0,setttled,0,0,7050 CARROLL AVE. #101,TAKOMA PARK,MD,20912
404,OUTBACK STEAKHOUSE,Sale To Minor,10/08/2018,1000.0,setttled,0,1,12609 WISTERIA DR,GERMANTOWN,MD,20874
405,LEBANESE TAVERNA CAFE,Sale To Minor,01/27/2017,1000.0,setttled,0,1,115 GIBBS STREET A,ROCKVILLE,MD,20850
406,LA FONDA CHIQUITA CAFE,Employee Records Not Available When Requested,05/29/2018,500.0,setttled,0,1,6838 NEW HAMPSHIRE AVE.,TAKOMA PARK,MD,20912
407,GILLY'S CRAFT BEER & FINE WINE,Sale To Minor,04/25/2017,1000.0,setttled,0,1,2009 CHAPMAN AVENUE,ROCKVILLE,MD,20852
408,PROMENADE MARKET & DELI,Alcohol Awareness Certified Person Not On Premises,04/11/2018,100.0,setttled,0,1,5225 POOKS HILL ROAD,BETHESDA,MD,20814
409,GAITHERSBURG SUPERMARKET,Alcohol Awareness Certified Person Not On Premises,08/19/2016,100.0,setttled,0,1,220 EAST DIAMOND AVENUE,GAITHERSBURG,MD,20877
410,PRIME BEER & WINE,Sale To Minor,09/13/2018,1000.0,setttled,0,1,12842 NEW HAMPSHIRE AVE,SILVER SPRING,MD,20904
411,MARK'S KITCHEN,Employee Records Not Available When Requested,08/15/2018,500.0,setttled,0,1,7006 CARROLL AVENUE,TAKOMA PARK,MD,20912
412,AZUL BAR & GRILL,Sale To Minor,02/16/2017,1000.0,hearing,0,1,18749 N. FREDERICK ROAD,GAITHERSBURG,MD,20879
413,HOLA BEER & WINE,Records Invoice Violation,11/15/2018,500.0,setttled,0,1,8035 SNOUFFER SCHOOL ROAD,GAITHERSBURG,MD,20879
414,SENECA MEADOWS BEER & WINE,Sale To Minor,08/29/2018,1000.0,setttled,0,1,20640 SENECA MEADOWS PKWY,GERMANTOWN,MD,20876
415,RINCON PERUANO,Sale To Minor,02/21/2019,2500.0,setttled,0,1,210 EAST DIAMOND ST,GAITHERSBURG,MD,20877
416,ANTOJITOS RESTAURANT,Sale To Minor,09/19/2018,1000.0,setttled,0,1,12 E. DIAMOND AVE.,GAITHERSBURG,MD,20877
417,THE THAI CUISINE RESTAURANT,Records Invoice Violation,08/10/2017,500.0,setttled,0,1,757 HUNGERFORD DRIVE,ROCKVILLE,MD,20850
418,SILVER SPRING HILTON HOTEL,Sale To Minor,08/02/2018,8000.0,setttled,0,1,8727 COLESVILLE ROAD,SILVER SPRING,MD,20910
419,EL PATIO,Sale To Minor,09/14/2017,1000.0,setttled,0,1,5240 RANDOLPH ROAD,ROCKVILLE,MD,20852
420,GESTE FOODS & WINE,Sale To Minor,02/02/2017,0.0,hearing+suspension,0,0,4801 EDGEMOOR LANE,BETHESDA,MD,20814
421,"GERMANTOWN BEER, WINE & PLUS",Alcohol Awareness Certified Person Not On Premises,03/28/2016,100.0,setttled,0,1,19590 FREDERICK ROAD,GERMANTOWN,MD,20874
422,BOULEVARD TAVERN,Disorderly House,09/19/2017,2500.0,setttled,0,1,311 KENTLANDS BOULEVARD,GAITHERSBURG,MD,20878
423,LE PAIN QUOTIDIEN,Sale To Minor,06/17/2016,2500.0,setttled,0,1,7140 BETHESDA LANE,BETHESDA,MD,20814
424,MOONLIGHT BAR,Sale To Minor,09/05/2018,1000.0,setttled,0,1,8035 SNOUFFER SCHOOL RD,GAITHERSBURG,MD,20879
425,SARDI'S POLLO A LA BRASA,Sale To Minor,06/29/2016,1000.0,setttled,0,1,430 NORTH FREDERICK ROAD,GAITHERSBURG,MD,20877
426,AZUL BAR & GRILL,To Intoxicated Patron,02/16/2017,0.0,hearing+suspension,0,0,18749 N. FREDERICK ROAD,GAITHERSBURG,MD,20879
427,GRAND FUSION,Sale To Minor,02/07/2019,1000.0,setttled,0,1,350 E. FORTUNE TERRACE,ROCKVILLE,MD,20854
428,RESTAURANT POLLOS EL MESON,License Not Properly Displayed,10/18/2016,100.0,setttled,0,1,615 SOUTH FREDERICK AVENUE,GAITHERSBURG,MD,20877
429,KAYPI RESTAURANT,Alcohol Awareness Certified Person Not On Premises,11/22/2017,500.0,setttled,0,1,2005 VEIRS MILL ROAD,ROCKVILLE,MD,20851
430,CAFE PROMENADE,Alcohol Awareness Certified Person Not On Premises,07/02/2018,100.0,setttled,0,1,5225 POOKS HILL ROAD,BETHESDA,MD,20814
431,MATCHBOX,Alcohol Awareness Certified Person Not On Premises,10/17/2018,100.0,setttled,0,1,1699 ROCKVILLE PIKE,ROCKVILLE,MD,20852
432,SAFFRON INDIAN CUISINE,Sale To Minor,05/01/2017,1000.0,setttled,0,1,1321 ROCKVILLE PIKE C,ROCKVILLE,MD,20852
433,MIX BAR & GRILLE,Alcohol Awareness Certified Person Not On Premises,12/07/2016,100.0,setttled,0,1,8241 GEORGIA AVENUE,SILVER SPRING,MD,20910
434,SPRINGHILL SUITES GAITHERSBURG,Sale To Minor,11/08/2018,1000.0,setttled,0,1,9715 WASHINGTONIAN BLVD.,GAITHERSBURG,MD,20878
435,ADDIE'S,Sale To Minor,01/22/2019,1000.0,setttled,0,1,12435 PARK POTOMAC AVE,POTOMAC,MD,20854
436,NEEDWOOD GOLF COURSE SNACK BAR,Sale To Minor,05/25/2017,1000.0,setttled,0,1,6724 NEEDWOOD ROAD,DERWOOD,MD,20855
437,TED'S BULLETIN,Sale To Minor,06/22/2016,1000.0,setttled,0,1,220 ELLINGTON BOULEVARD,GAITHERSBURG,MD,20878
438,BECLAWS,Alcohol Awareness Certified Person Not On Premises,10/18/2018,500.0,setttled,0,1,2404 UNIVERSITY BOULEVARD,SILVER SPRING,MD,20902
439,"CANCUN GRILL RESTAURANT, THE",To Intoxicated Patron,12/07/2018,1000.0,setttled,0,1,11220 GEORGIA AVENUE,WHEATON,MD,20902
440,MODERN MARKET ROCKVILLE,Sale To Minor,03/09/2017,1000.0,setttled,0,1,1627 ROCKVILLE PIKE,ROCKVILLE,MD,20852
441,RESTAURANT POLLOS EL MESON,Failure To Purchase From Approved Source,10/18/2016,1800.0,setttled,0,1,615 SOUTH FREDERICK AVENUE,GAITHERSBURG,MD,20877
442,EL AGUILA RESTAURANT,Sale To Minor,11/28/2017,1000.0,setttled,0,1,8649 16TH STREET,SILVER SPRING,MD,20910
443,SAKURA JAPAN STEAK & SEAFOOD,Refilling Empty/Partially Empty Alcoholic Bottles,09/12/2017,400.0,setttled,0,1,11502 MIDDLEBROOK ROAD,GERMANTOWN,MD,20876
444,PANDORA SEAFOOD HOUSE,Alcohol Awareness Certified Person Not On Premises,06/01/2018,100.0,setttled,0,1,36 A MARYLAND AVENUE,ROCKVILLE,MD,20850
445,MOGOTILLO RESTAURANT,Employee Records Not Available When Requested,02/19/2016,500.0,hearing,0,0,7637 NEW HAMPSHIRE AVENUE,TAKOMA PARK,MD,20912
446,KAYPI RESTAURANT,Alcohol Awareness Certified Person Not On Premises,06/01/2017,100.0,setttled,0,1,2005 VEIRS MILL ROAD,ROCKVILLE,MD,20851
447,ARMANDS CHICAGO PIZZERIA,Sale To Minor,02/27/2018,2500.0,setttled,0,1,1909 SEMINARY ROAD,SILVER SPRING,MD,20910
448,NEW YORK J & P PIZZA,Sale To Minor,09/06/2018,1000.0,setttled,0,1,26027 RIDGE ROAD,DAMASCUS,MD,20872
449,CHAPEL BEER & WINE,Sale To Minor,08/17/2018,1000.0,setttled,0,1,19727 FREDERICK RD,GERMANTOWN,MD,20876
450,LUCKY STRIKE,Sale To Minor,10/02/2017,1000.0,setttled,0,1,7101 DEMOCRACY BLVD #1022,BETHESDA,MD,20817
451,GAITHERSBURG SUPERMARKET,Alcohol Awareness Certified Person Not On Premises,06/05/2017,500.0,setttled,0,1,220 EAST DIAMOND AVENUE,GAITHERSBURG,MD,20877
452,RUBY TUESDAY,Alcohol Awareness Certified Person Not On Premises,07/06/2016,100.0,setttled,0,1,701 RUSSELL AVE.,GAITHERSBURG,MD,20877
453,CAMBRIA HOTEL & SUITES,Alcohol Awareness Certified Person Not On Premises,01/17/2017,100.0,setttled,0,1,1 RENAISSANCE STREET,ROCKVILLE,MD,20850
454,HILLANDALE BEER & WINE,Sale To Minor,03/11/2016,1000.0,setttled,0,1,10117 NEW HAMPSHIRE AVE.,SILVER SPRING,MD,20903
455,THE OFFICE CAFE & LOUNGE,Sale To Minor,04/30/2018,2500.0,setttled,0,1,6860 OLNEYLAYTONSVILLE ROAD,LAYTONSVILLE,MD,20882
456,SUPER BOWL NOODLE HOUSE,Sale To Minor,02/15/2017,1000.0,setttled,0,1,785 ROCKVILLE PIKE,ROCKVILLE,MD,20852
457,THE GREENE TURTLE,Sale To Minor,12/02/2016,1000.0,setttled,0,1,19961 CENTURY BOULEVARD,GERMANTOWN,MD,20874
458,CALIENTE RESTAURANT & BAR,Employee Records Not Available When Requested,05/25/2017,500.0,setttled,0,1,2442 ENALLS AVENUE,WHEATON,MD,20902
459,SAMOVAR,Sale To Minor,01/15/2019,1000.0,setttled,0,1,201 N. WASHINGTON ST.,ROCKVILLE,MD,20850
460,TASTEE DINER,Sale To Minor,11/29/2017,2500.0,setttled,0,1,8601 CAMERON STREET,SILVER SPRING,MD,20910
461,LOTUS CAFE,Sale To Minor,02/14/2018,2500.0,setttled,0,1,8077 GEORGIA AVE,SILVER SPRING,MD,20910
462,ALL SET,Sale To Minor,02/05/2018,1000.0,setttled,0,1,8630 FENTON STREET,SILVER SPRING,MD,20910
463,BEMNET SUPERMARKET AND DELI,Sale To Minor,07/22/2016,1000.0,setttled,0,1,617 SLIGO AVENUE,SILVER SPRING,MD,20910
464,CANOPY,Sale To Minor,12/12/2018,1000.0,setttled,0,1,940 ROSE AVE,NORTH BETHESDA,MD,20852
465,CHIPOTLE MEXICAN GRILL - KENTLANDS,Sale To Minor,09/14/2018,2500.0,setttled,0,1,96 MAIN STREET,GAITHERSBURG,MD,20878
466,FONTINA GRILLE,Alcohol Awareness Certified Person Not On Premises,06/28/2018,500.0,setttled,0,1,801 PLEASANT DRIVE,ROCKVILLE,MD,20850
467,SIRIWAN THAI RESTAURANT,Employee Records Not Available When Requested,05/12/2017,500.0,setttled,0,1,736 CLOVERLY STREET,SILVER SPRING,MD,20905
468,URBAN BAR-B-QUE,Records Invoice Violation,11/21/2018,500.0,setttled,0,1,10163 NEW HAMPSHIRE AVE,SILVER SPRING,MD,20903
469,KING FARM WINE & BEER,Sale To Minor,03/17/2017,1000.0,setttled,0,1,402 KING FARM BLVD. UNIT 100,ROCKVILLE,MD,20850
470,CHEESE & WINE SHOPPE,Application - Failure To Update,09/10/2018,1000.0,setttled,0,1,2501 ENNALLS AVE.,WHEATON,MD,20902
471,BOULEVARD TAVERN,Disorderly House,09/19/2017,1000.0,setttled,0,1,311 KENTLANDS BOULEVARD,GAITHERSBURG,MD,20878
472,PINSTRIPES,Sale To Minor,12/03/2018,1000.0,setttled,0,1,851 ROSE AVE.,NORTH BETHESDA,MD,20852
473,BENIHANA OF TOKYO,Sale To Minor,02/06/2018,1000.0,setttled,0,1,7935 WISCONSIN AVE.,BETHESDA,MD,20814
474,BEMNET SUPERMARKET AND DELI,Storage,01/23/2019,200.0,setttled,0,1,617 SLIGO AVENUE,SILVER SPRING,MD,20910
475,RIVERSIDE HOTPOT CUISINE,Employee Records Not Available When Requested,08/13/2018,500.0,setttled,0,1,820 MUDDY BRANCH ROAD,GAITHERSBURG,MD,20878
476,M & N PIZZA,Sale To Minor,10/24/2017,1000.0,setttled,0,1,7750 OLD GEORGETOWN ROAD,BETHESDA,MD,20814
477,MASTER 8 BILLIARDS,Sale To Minor,02/12/2016,1500.0,setttled,0,1,2640 UNIVERITY BLVD.,SILVER SPRING,MD,20902
478,GISELES CREOLE CUISINE,Employee Records Not Available When Requested,10/11/2018,500.0,setttled,0,1,2407 PRINCE AVENUE,SILVER SPRING,MD,20902
479,GIUSEPPI'S PIZZA PLUS,Sale To Minor,12/18/2018,2500.0,setttled,0,1,335 KENTLANDS BLVD.,GAITHERSBURG,MD,20878
480,JO'S BEER AND WINE,Sale To Minor,09/13/2018,1000.0,setttled,0,1,18507 N. FREDERICK AVENUE,GAITHERSBURG,MD,20879
481,SPENCERVILLE MARKET,Employee Records Not Available When Requested,12/11/2017,500.0,setttled,0,1,2215 SPENCERVILLE ROAD,SPENCERVILLE,MD,20860
482,RED ROBIN,Sale To Minor,02/15/2017,1000.0,setttled,0,1,20001 CENTURY BLVD.,GERMANTOWN,MD,20874
483,SUPER CHICKEN,Alcohol Awareness Certified Person Not On Premises,08/13/2018,100.0,setttled,0,1,12611 H WISTERIA DRIVE,GERMANTOWN,MD,20874
484,BESTWAY MARYLAND SUPERMKT.,Alcohol Awareness Certified Person Not On Premises,05/04/2016,100.0,setttled,0,0,8540 PINEY BRANCH ROAD,SILVER SPRING,MD,20901
485,HOWARD DELI,Alcohol Awareness Certified Person Not On Premises,11/20/2018,100.0,setttled,0,1,4222 HOWARD AVE. D,KENSINGTON,MD,20895
486,BISTRO PROVENCE,Sale To Minor,03/19/2018,1000.0,setttled,0,1,4933 FAIRMONT AVENUE,BETHESDA,MD,20814
487,GREATEST AMERICAN HOT DOGS,Sale To Minor,08/18/2016,1000.0,setttled,0,1,7206 MUNCASTER MILL ROAD,DERWOOD,MD,20855
488,WORLD GOURMET WINE & BEER,Sale To Minor,02/11/2019,1000.0,setttled,0,1,7905 TUCKERMAN LANE,POTOMAC,MD,20854
489,MIX BAR & GRILLE,Alcohol Awareness Certified Person Not On Premises,12/01/2017,100.0,setttled,0,1,9812 FALLS RD,POTOMAC,MD,20854
490,CALIENTE RESTAURANT & BAR,Sale To Minor,05/25/2017,1000.0,setttled,0,1,2442 ENALLS AVENUE,WHEATON,MD,20902
491,LILIT CAFE,Sale To Minor,12/18/2017,1000.0,setttled,0,1,7921 OLD GEORGETOWN RD,BETHESDA,MD,20814
492,PASSAGE TO INDIA,Sale To Minor,03/27/2018,1000.0,setttled,0,1,4931 CORDELL AVE.,BETHESDA,MD,20814
493,TACO BAR,Alcohol Awareness Certified Person Not On Premises,09/14/2018,100.0,setttled,0,1,10003 FIELDS ROAD B,GAITHERSBURG,MD,20878
494,GESTE FOODS & WINE,Alcohol Awareness Certified Person Not On Premises,05/24/2016,100.0,setttled,0,1,4801 EDGEMOOR LANE,BETHESDA,MD,20814
495,PI PIZZERIA,Sale To Minor,02/05/2018,1000.0,setttled,0,1,7137 WISCONSIN AVENUE,BETHESDA,MD,20814
496,JOSE'S GRILL,Sale To Minor,09/09/2016,3000.0,setttled,0,1,11423 GEORGIA AVE.,WHEATON,MD,20902
497,TEX'S PLACE,Alcohol Awareness Certified Person Not On Premises,11/08/2018,100.0,setttled,0,1,14630 SOUTHLAWN LANE,ROCKVILLE,MD,20850
498,AZUL BAR & GRILL,To Intoxicated Patron,09/15/2016,0.0,hearing+suspension,0,0,18749 N. FREDERICK ROAD,GAITHERSBURG,MD,20879
499,MODERN MARKET ROCKVILLE,Alcohol Awareness Certified Person Not On Premises,03/09/2017,100.0,setttled,0,1,1627 ROCKVILLE PIKE,ROCKVILLE,MD,20852
500,LITTLE DIPPER HOT POT SAUCE,Alcohol Awareness Certified Person Not On Premises,03/13/2018,100.0,setttled,0,1,78101 A GIBBS STREET,ROCKVILLE,MD,20850
501,ISLAND PRIDE OASIS,Storage,07/07/2017,200.0,setttled,0,1,617 SOUTH FREDERICK AVENUE,GAITHERSBURG,MD,20877
502,WOK EXPRESS,Alcohol Awareness Certified Person Not On Premises,03/06/2018,500.0,setttled,0,1,9615 LOST KNIFE ROAD,GAITHERSBURG,MD,20877
503,CHIPOTLE MEXICAN GRILL,Alcohol Awareness Certified Person Not On Premises,12/29/2016,100.0,setttled,0,1,4471 WILLIARD AVENUE,CHEVY CHASE,MD,20815
504,BRIGHTON BEER & WINE,Alcohol Awareness Certified Person Not On Premises,12/27/2016,100.0,setttled,0,1,225 MUDDY BRANCH ROAD,GAITHERSBURG,MD,20878
505,GUAPO'S,Alcohol Awareness Certified Person Not On Premises,07/05/2016,100.0,setttled,0,1,411 NORTH FREDERICK AVE,GAITHERSBURG,MD,20878
506,EL SOL SALVADOREAN & MEXICAN RESTAURANT,Sale To Minor,01/20/2016,2500.0,setttled,0,1,13881 OUTLET DRIVE C,SILVER SPRING,MD,20904
507,URBAN CRAWFISH,Alcohol Awareness Certified Person Not On Premises,05/30/2017,100.0,setttled,0,1,670 QUINCE ORCHARD RD,GAITHERSBURG,MD,20878
508,FAMOUS DAVE'S,Sale To Minor,02/03/2017,1000.0,setttled,0,1,20650 SENECA MEADOWS PKWY,GERMANTOWN,MD,20876
509,FUSION BAR & GRILL,Of The Neighborhood,10/05/2016,0.0,hearing,1,0,15535 NEW HAMPSHIRE AVENUE,SILVER SPRING,MD,20905
510,ARCLIGHT CINEMAS,Sale To Minor,10/02/2017,1000.0,setttled,0,1,7101 DEMOCRACY BLVD,BETHESDA,MD,20817
511,LEDO PIZZA,Sale To Minor,12/12/2018,1000.0,setttled,0,1,10058 DARNESTOWN ROAD,ROCKVILLE,MD,20850
512,BELBY DISCOUNT BEER & WINE,Sale To Minor,11/13/2018,1000.0,setttled,0,1,888 ROCKVILLE PIKE,ROCKVILLE,MD,20852
513,CHOICE MARKET,Alcohol Awareness Certified Person Not On Premises,09/13/2018,100.0,setttled,0,1,18700 WALKERS CHOICE RD,MONTGOMERY VILLAGE,MD,20886
514,PI PIZZERIA,Employee Records Not Available When Requested,02/05/2018,500.0,setttled,0,1,7137 WISCONSIN AVENUE,BETHESDA,MD,20814
515,BIG WAN'S CUISINE,License Not Properly Displayed,08/23/2016,100.0,hearing,0,0,16051 FREDERICK ROAD,ROCKVILLE,MD,20855
516,KOI ASIAN CUISINE,Sale To Minor,05/23/2016,1000.0,setttled,0,1,12046 CHERRY HILL ROAD,SILVER SPRING,MD,20904
517,7  ELEVEN FOOD STORE 11713A,Alcohol Awareness Certified Person Not On Premises,04/19/2018,100.0,setttled,0,1,14101 GEORGIA AVE.,WHEATON,MD,20906
518,THAI TANIUM,Sale To Minor,06/17/2016,1000.0,setttled,0,1,657 CENTER POINT WAY,GAITHERSBURG,MD,20878
519,THAT'S AMORE,Sale To Minor,03/17/2017,1000.0,setttled,0,1,15201 SHADY GROVE ROAD,ROCKVILLE,MD,20850
520,SMOKE BBQ,Sale To Minor,05/02/2016,1000.0,setttled,0,1,4858 CORDELL AVENUE,BETHESDA,MD,20814
521,TANDOORI NIGHTS-BETHESDA,Alcohol Awareness Certified Person Not On Premises,03/21/2016,100.0,setttled,0,0,7236 WOODMONT AVENUE,BETHESDA,MD,20814
522,FONTINA GRILLE,Sale To Minor,03/21/2017,1000.0,setttled,0,1,801 PLEASANT DRIVE,ROCKVILLE,MD,20850
523,RESTAURANT POLLOS EL MESON,Records Invoice Violation,08/02/2018,500.0,setttled,0,1,615 SOUTH FREDERICK AVENUE,GAITHERSBURG,MD,20877
524,MAMMA LUCIA,Sale To Minor,12/05/2017,2500.0,setttled,0,1,4916 ELM STREET,BETHESDA,MD,20814
525,ISLAND PRIDE OASIS,Records Invoice Violation,01/16/2018,500.0,setttled,0,1,617 SOUTH FREDERICK AVENUE,GAITHERSBURG,MD,20877
526,LESAAC CAFE,Alcohol Awareness Certified Person Not On Premises,06/23/2016,100.0,setttled,0,1,8200 FENTON STREET,SILVER SPRING,MD,20910
527,THE YO YO CAFE,Sale To Minor,11/06/2017,1000.0,setttled,0,1,13843 OUTLET DRIVE,SILVER SPRING,MD,20904
528,MARK'S KITCHEN,Sale To Minor,08/15/2018,1000.0,setttled,0,1,7006 CARROLL AVENUE,TAKOMA PARK,MD,20912
529,FLOR DE LUNA RESTAURANT,Alcohol Awareness Certified Person Not On Premises,02/14/2017,100.0,setttled,0,1,11417 WOODGLEN RD,ROCKVILLE,MD,20852
530,KINGSVIEW BEER & WINE,Sale To Minor,12/13/2016,1000.0,setttled,0,1,13406 KINGSVIEW VILLAGE AVENUE,GERMANTOWN,MD,20874
531,KING FARM WINE & BEER,License Not Properly Displayed,03/17/2017,100.0,setttled,0,0,402 KING FARM BLVD. UNIT 100,ROCKVILLE,MD,20850
532,KADHAI INDIAN CUISINE,Sale To Minor,04/18/2016,1000.0,setttled,0,1,7905 NORFOLK AVENUE,BETHESDA,MD,20814
533,LIMARIA POLLO A LA BRASA,License Not Properly Displayed,02/09/2018,100.0,setttled,0,1,74 BUREAU DRIVE,GAITHERSBURG,MD,20878
534,4935 BAR & KITCHEN,Disorderly House,12/13/2017,2500.0,setttled,0,1,4935 CORDELL AVENUE,BETHESDA,MD,20814
535,MISSON BBQ,Sale To Minor,10/05/2017,1000.0,setttled,0,1,885 ROCKVILLE PIKE,ROCKVILLE,MD,20852
536,SUGO MACARONI BAR,Sale To Minor,02/21/2019,1000.0,setttled,0,1,12505 PARK POTOMAC AVENUE,POTOMAC,MD,20854
537,REDMILL MARKET BEER & WINE,Sale To Minor,10/08/2018,1000.0,setttled,0,1,7248 MUNCASTER MILL ROAD,DERWOOD,MD,20855
538,QDOBA MEXICAN GRILL,Sale To Minor,12/18/2018,1000.0,setttled,0,1,128 ROLLINS AVE.,ROCKVILLE,MD,20852
539,AZUL BAR & GRILL,Disorderly House,09/15/2016,4000.0,hearing,0,0,18749 N. FREDERICK ROAD,GAITHERSBURG,MD,20879
540,RIVERSIDE LOUNGE,Employee Records Not Available When Requested,07/24/2018,500.0,setttled,0,0,11272 GEORGIA AVENUE,WHEATON,MD,20902
541,LOTUS CAFE,Employee Records Not Available When Requested,02/14/2018,500.0,setttled,0,1,8077 GEORGIA AVE,SILVER SPRING,MD,20910
542,GAITHERSBURG SUPERMARKET,Employee Records Not Available When Requested,07/28/2016,500.0,setttled,0,1,220 EAST DIAMOND AVENUE,GAITHERSBURG,MD,20877
543,TACO BAR,Employee Records Not Available When Requested,09/05/2017,500.0,setttled,0,1,3 RUSSELL AVE A,GAITHERSBURG,MD,20877
544,GREAT SHOALS,Sale To Minor,09/18/2018,1000.0,setttled,0,1,7050 CARROLL AVE. #101,TAKOMA PARK,MD,20912
545,OWENS ORDINARY,Storage,09/14/2018,1000.0,setttled,0,1,11820 TRADE STREET,NORTH BETHESDA,MD,20852
546,DAVE & BUSTER'S,Sale To Minor,04/06/2018,1000.0,setttled,0,1,8661 COLESVILLE RD,SILVER SPRING,MD,20910
547,EL SOL SALVADOREAN & MEXICAN RESTAURANT,Alcohol Awareness Certified Person Not On Premises,09/07/2018,500.0,setttled,0,1,13881 OUTLET DRIVE C,SILVER SPRING,MD,20904
548,EVEN HOTEL,Sale To Minor,11/20/2018,1000.0,setttled,0,1,1775 ROCKVILLE PIKE,ROCKVILLE,MD,20852
549,GREEN GROWLER'S,Alcohol Awareness Certified Person Not On Premises,04/25/2018,100.0,setttled,0,1,227 E. DIAMOND AVE,GAITHERSBURG,MD,20878
550,RUBY TUESDAY,Sale To Minor,01/19/2017,8000.0,hearing,0,0,19800 CENTURY BLVD.,GERMANTOWN,MD,20874
551,IL PIZZICO,Sale To Minor,09/19/2017,1000.0,setttled,0,1,15209 FREDERICK ROAD,ROCKVILLE,MD,20850
552,FIRE STATION 1,Sale To Minor,05/06/2018,1000.0,none,0,1,8131 GEORGIA AVENUE,SILVER SPRING,MD,20910
553,AGRODOLCE,Alcohol Awareness Certified Person Not On Premises,10/08/2018,500.0,setttled,0,1,21030 FREDERICK ROAD J,GERMANTOWN,MD,20876
554,BESTWAY MARYLAND SUPERMKT.,Employee Records Not Available When Requested,05/04/2016,500.0,setttled,0,1,8540 PINEY BRANCH ROAD,SILVER SPRING,MD,20901
555,LA CASITA,Sale To Minor,12/19/2016,1000.0,setttled,0,1,2 EAST DIAMOND AVENUE,GAITHERSBURG,MD,20877
556,PICCA POLLO A LA BRASA,Sale To Minor,01/03/2017,1000.0,setttled,0,1,13000 MIDDLEBROOK ROAD,GREMANTOWN,MD,20874
557,IRENE'S PUPUSAS,Employee Records Not Available When Requested,05/26/2017,500.0,setttled,0,1,12391 GEORGIA AVENUE,SILVER SPRING,MD,20906
558,ROLLINS BEER & WINE,Sale To Minor,12/07/2018,1000.0,setttled,0,1,151 ROLLINS AVE.,ROCKVILLE,MD,20852
559,NEW VILLAGE RESTAURANT,License Not Properly Displayed,09/11/2017,100.0,setttled,0,1,11540 MIDDLEBROOK ROAD,GERMANTOWN,MD,20876
560,COURTYARD BY MARRIOTT - SILVER SPRING,Sale To Minor,03/05/2018,2500.0,setttled,0,1,8506 FENTON STREET,SILVER SPRING,MD,20910
561,FIRE STATION 1,Alcohol After Permitted Hours,07/19/2018,2500.0,setttled,0,1,8131 GEORGIA AVENUE,SILVER SPRING,MD,20910
562,MEZEH MEDITERRANEAN GRILL,Sale To Minor,10/30/2018,1000.0,setttled,0,1,262 CROWN PARK AVENUE,GAITHERSBURG,MD,20878
563,CALIENTE RESTAURANT & BAR,To Intoxicated Patron,04/14/2016,1000.0,hearing,0,0,2442 ENALLS AVENUE,WHEATON,MD,20902
564,SHANGRI-LA,Employee Records Not Available When Requested,01/29/2018,500.0,setttled,0,1,7345 WISCONSIN AVENUE A,BETHESDA,MD,20814
565,BAR LOUIE WHEATON,Sale To Minor,05/09/2017,1000.0,setttled,0,1,11160 VEIRS MILL RD,WHEATON,MD,20902
566,CHIPOTLE MEXICAN GRILL - KENTLANDS,Age Of Employee Violation,09/14/2018,1000.0,setttled,0,1,96 MAIN STREET,GAITHERSBURG,MD,20878
567,THAT'S AMORE,Alcohol Awareness Certified Person Not On Premises,01/17/2019,100.0,setttled,0,1,15201 SHADY GROVE ROAD,ROCKVILLE,MD,20850
568,I ROCK KARAOKE LOUNGE,Records Invoice Violation,07/06/2018,500.0,setttled,0,1,15964 SHADY GROVE RD.,GAITHERSBURG,MD,20877
569,CHARM THAI RESTAURANT,Sale To Minor,01/03/2018,1000.0,setttled,0,1,8408 GEORGIA AVENUE UNIT A,SILVER SPRING,MD,20910
570,RADISSON HOTEL DC,Sale To Minor,02/20/2019,1000.0,setttled,0,1,3 RESEARCH BLVD.,ROCKVILLE,MD,20850
571,NOODLES & COMPANY,Sale To Minor,07/01/2016,2500.0,setttled,0,1,177 KENTLANDS BLVD. SUITE 100,GAITHERSBURG,MD,20878
572,CHOICE MARKET,Employee Records Not Available When Requested,09/13/2018,500.0,setttled,0,1,18700 WALKERS CHOICE RD,MONTGOMERY VILLAGE,MD,20886
573,PARKWAY DELICATESSEN,Sale To Minor,12/22/2017,2500.0,setttled,0,1,8317 GRUBB ROAD,SILVER SPRING,MD,20910
574,REDGATE GOLF COURSE,Alcohol Awareness Certified Person Not On Premises,05/30/2017,100.0,setttled,0,1,14500 AVERY ROAD,ROCKVILLE,MD,20853
575,KAYPI RESTAURANT,Failure To Purchase From Approved Source,10/18/2016,400.0,setttled,0,1,2005 VEIRS MILL ROAD,ROCKVILLE,MD,20851
576,MEZEH MEDITERRANEAN GRILL,License Not Properly Displayed,10/30/2018,100.0,setttled,0,1,262 CROWN PARK AVENUE,GAITHERSBURG,MD,20878
577,CLYDES TOWER OAKS LODGE,Records Invoice Violation,10/20/2017,500.0,setttled,0,1,2 PRESERVE PKWY.,ROCKVILLE,MD,20852
578,OGEI'S CHICKEN & SUBS,Sale To Minor,05/31/2016,0.0,hearing,1,0,293 MUDDY BRANCH ROAD,GAITHERSBURG,MD,20878
579,SARITA'S CHICKEN RESTAURANT,Employee Records Not Available When Requested,07/03/2017,500.0,setttled,0,1,2545 ENNALLS AVENUE,WHEATON,MD,20904
580,P.F. CHANG'S CHINA BISTRO,Sale To Minor,01/30/2018,1000.0,setttled,0,1,5406 WISCONSIN AVENUE B,CHEVY CHASE,MD,20815
581,GENTLEMAN JIM'S RESTAURANT,Alcohol After Permitted Hours,11/09/2017,1000.0,setttled,0,1,18917 EARHART COURT,GAITHERSBURG,MD,20879
582,NOT YOUR AVERAGE JOE'S,License Not Properly Displayed,04/29/2016,100.0,setttled,0,1,239 KENTLANDS BLVD.,GAITHERSBURG,MD,20878
583,WINTHORPE VALENTINE'S COMMUNITY RESTAURANT,Sale To Minor,02/13/2017,1000.0,setttled,0,1,7700 NORFOLK AVENUE,BETHESDA,MD,20814
584,POLLO-MEX,Alcohol Awareness Certified Person Not On Premises,10/14/2016,100.0,setttled,0,1,13436 NEW HAMPSHIRE AVENUE,SILVER SPRING,MD,20904
585,ROSSMOOR LEISURE WORLD,Application - False Information,06/07/2017,1000.0,setttled,0,1,3700 ROSSMOOR BLVD.,SILVER SPRING,MD,20906
586,GREATEST AMERICAN HOT DOGS,Alcohol Awareness Certified Person Not On Premises,12/07/2017,100.0,setttled,0,1,7206 MUNCASTER MILL ROAD,DERWOOD,MD,20855
587,EL AGUILA,Sale To Minor,01/19/2016,1000.0,setttled,0,1,7926 GEORGIA AVENUE,SILVER SPRING,MD,20910
588,JACKIE'S,Sale To Minor,01/27/2016,2500.0,setttled,0,1,8081 GEORGIA AVE.,SILVER SPRING,MD,20910
589,SUPER BOWL NOODLE HOUSE,Alcohol Awareness Certified Person Not On Premises,02/15/2017,500.0,setttled,0,1,785 ROCKVILLE PIKE,ROCKVILLE,MD,20852
590,RESTAURANT POLLOS EL MESON,License Not Properly Displayed,08/02/2018,100.0,setttled,0,1,615 SOUTH FREDERICK AVENUE,GAITHERSBURG,MD,20877
591,VEGETABLE GARDEN,Alcohol Awareness Certified Person Not On Premises,11/13/2018,100.0,setttled,0,1,3830 INTERNATIONAL DRIVE,SILVER SPRING,MD,20906
592,COURTYARD BY MARRIOTT,Sale To Minor,06/20/2016,1000.0,setttled,0,1,204 BOARDWALK PLACE,GAITHERSBURG,MD,20878
593,PACIFICA CAFE,Sale To Minor,10/17/2018,1000.0,setttled,0,1,621 CENTER POINT WAY,GAITHERSBURG,MD,20878
594,MOTI'S MARKET,Sale To Minor,01/26/2018,2500.0,setttled,0,1,4860 BOILING BROOK PKWY.,ROCKVILLE,MD,20852
595,NOT YOUR AVERAGE JOE'S,Sale To Minor,08/21/2018,1000.0,setttled,0,1,239 KENTLANDS BLVD.,GAITHERSBURG,MD,20878
596,BETHESDA CRAB HOUSE,Sale To Minor,10/18/2017,1000.0,setttled,0,1,4958 BETHESDA AVE.,BETHESDA,MD,20814
597,LA FONDA CHIQUITA CAFE,Sale To Minor,06/26/2018,1000.0,setttled,0,1,6838 NEW HAMPSHIRE AVE.,TAKOMA PARK,MD,20912
598,SPRING BEER & WINE,Sale To Minor,03/17/2016,1000.0,setttled,0,1,8645 16TH STREET,SILVER SPRING,MD,20910
599,MONTGOMERY VILLAGE BEER & WINE,Alcohol Awareness Certified Person Not On Premises,09/04/2018,100.0,setttled,0,1,18286 CONTOUR RD,GAITHERSBURG,MD,20879
600,DOUBLETREE HOTEL,Sale To Minor,05/13/2016,2500.0,setttled,0,1,8120 WISCONSIN AVENUE,BETHESDA,MD,20814
601,ROSSMOOR LEISURE WORLD,Alcohol Awareness Certified Person Not On Premises,05/29/2018,100.0,setttled,0,1,3700 ROSSMOOR BLVD.,SILVER SPRING,MD,20906
602,HOLIDAY INN EXPRESS & SUITES,Sale To Minor,09/13/2017,1000.0,setttled,0,1,20260 GOLDENROD LANE,GERMANTOWN,MD,20876
603,CHOICE WINE & BEER,Sale To Minor,08/15/2018,1000.0,setttled,0,1,11160 VEIRS MILL RD,WHEATON,MD,20902
604,SAMANTHA'S,Alcohol Awareness Certified Person Not On Premises,08/16/2016,100.0,setttled,0,1,631 UNIVERSITY BLVD. E.,SILVER SPRING,MD,20901
605,EL AGUILA RESTAURANT,License Not Properly Displayed,11/28/2017,100.0,setttled,0,1,8649 16TH STREET,SILVER SPRING,MD,20910
606,TACO BAR,Employee Records Not Available When Requested,09/14/2018,500.0,setttled,0,1,10003 FIELDS ROAD B,GAITHERSBURG,MD,20878
607,RED BOWL,Sale To Minor,09/14/2018,1000.0,setttled,0,1,12051 C4 CHESTNUT BRANCH WAY,CLARKSBURG,MD,20871
608,DINGNESH ETHIOPIAN RESTAURANT,Sale To Minor,03/22/2018,1000.0,setttled,0,1,4865 CORDELL AVE,BETHESDA,MD,20814
609,SPENCERVILLE MARKET,Sale To Minor,12/11/2017,1000.0,setttled,0,1,2215 SPENCERVILLE ROAD,SPENCERVILLE,MD,20860
610,OUTBACK STEAKHOUSE,Alcohol Awareness Certified Person Not On Premises,10/08/2018,100.0,setttled,0,1,12609 WISTERIA DR,GERMANTOWN,MD,20874
611,"BEST BEER, WINE, & DELI",Sale To Minor,10/12/2018,1000.0,setttled,0,1,18749 NORTH FREDERICK AVENUE A,GAITHERSBURG,MD,20879
612,LUKE'S LOBSTER,Alcohol Awareness Certified Person Not On Premises,01/26/2018,100.0,setttled,0,1,7129 BETHESDA LANE,BETHESDA,MD,20814
613,NEWS EXPRESS,Sale To Minor,04/20/2016,1000.0,setttled,0,1,4853 CORDELL AVENUE,BETHESDA,MD,20814
614,EVA LOUNGE,Dispensing Liquor By Bottle For Consumption Onsite,11/09/2018,1000.0,none,0,1,953 BONIFANT STREET,SILVER SPRING,MD,20910
615,THE BEER & WINE CELLAR,Sale To Minor,02/21/2017,1000.0,setttled,0,1,146 CONGRESSIONAL LANE,ROCKVILLE,MD,20852
616,OLD WORLD FAVORITES,Alcohol Awareness Certified Person Not On Premises,09/05/2017,100.0,setttled,0,1,3854 INTERNATIONAL DRIVE,SILVER SPRING,MD,20906
617,IKKO,Sale To Minor,02/02/2016,1000.0,setttled,0,1,1215 EASTWEST HIGHWAY,SILVER SPRING,MD,20910
618,THAI PAVILION,Alcohol Awareness Certified Person Not On Premises,02/14/2019,100.0,setttled,0,1,29 MARYLAND AVENUE 308,ROCKVILLE,MD,20850
619,SASUNS,Sale To Minor,11/06/2018,1000.0,setttled,0,1,7217 MUNCASTER MILL RD,DERWOOD,MD,20855
620,BENIHANA OF TOKYO,Employee Records Not Available When Requested,02/06/2018,500.0,setttled,0,1,7935 WISCONSIN AVE.,BETHESDA,MD,20814
621,PERUVIAN COUNTRY CHICKEN,Alcohol Awareness Certified Person Not On Premises,08/04/2016,100.0,setttled,0,1,10118 COLESVILLE ROAD,SILVER SPRING,MD,20901
622,SUPER CHICKEN,Sale To Minor,08/13/2018,1000.0,setttled,0,1,12611 H WISTERIA DRIVE,GERMANTOWN,MD,20874
623,NEW VILLAGE RESTAURANT,Alcohol Awareness Certified Person Not On Premises,09/11/2017,100.0,setttled,0,1,11540 MIDDLEBROOK ROAD,GERMANTOWN,MD,20876
624,KENSINGTON SUB & PIZZA,Storage,02/25/2019,1000.0,setttled,0,1,3701 UNIVERSITY BLVD. W.,KENSINGTON,MD,20895
625,SABAI SABAI...SIMPLY THAI,Sale To Minor,08/13/2018,1000.0,setttled,0,1,19847 CENTURY BOULEVARD,GERMANTOWN,MD,20874
626,MOM'S ORGANIC MARKET,Alcohol Awareness Certified Person Not On Premises,02/13/2017,100.0,setttled,0,1,5556 RANDOLPH ROAD,ROCKVILLE,MD,20852
627,OGEI'S CHICKEN & SUBS,To Intoxicated Patron,05/31/2016,0.0,hearing,1,0,293 MUDDY BRANCH ROAD,GAITHERSBURG,MD,20878
628,IRON AGE,Employee Records Not Available When Requested,11/13/2018,500.0,setttled,0,1,1054 ROCKVILLE PIKE,ROCKVILLE,MD,20852
629,NEW FORTUNE RESTAURANT,Sale To Minor,11/29/2018,1000.0,setttled,0,1,16515 FREDERICK ROAD,GAITHERSBURG,MD,20877
630,GESTE FOODS & WINE,Employee Records Not Available When Requested,02/02/2017,500.0,hearing,0,0,4801 EDGEMOOR LANE,BETHESDA,MD,20814
631,TRAPEZARIA MEDITERRANEAN KUZINA,Alcohol Awareness Certified Person Not On Premises,02/23/2017,100.0,setttled,0,1,11 NORTH WASHINGTON STREET,ROCKVILLE,MD,20850
632,LA COLOMBIANA RESTAURANT,Employee Records Not Available When Requested,10/26/2018,500.0,setttled,0,0,11216 GRANDVIEW AVENUE,WHEATON,MD,20902
633,ABI AZTECA GRILL,Sale To Minor,09/05/2018,1000.0,setttled,0,1,11514 MIDDLEBROOK RD.,GERMANTOWN,MD,20874
634,DA MARCO,Sale To Minor,02/13/2017,1000.0,setttled,0,1,20630 SENECA MEADOWS PKWY,GERMANTOWN,MD,20876
635,PROMENADE MARKET & DELI,Sale To Minor,04/11/2018,1000.0,setttled,0,1,5225 POOKS HILL ROAD,BETHESDA,MD,20814
636,RIVERSIDE LOUNGE,Storage,07/24/2018,800.0,setttled,0,1,11272 GEORGIA AVENUE,WHEATON,MD,20902
637,HECKMAN'S DELICATESSEN,Sale To Minor,05/01/2018,1000.0,setttled,0,1,4914 CORDELL AVENUE,BETHESDA,MD,20814
638,"BEER, WINE & CO",Sale To Minor,01/10/2017,1000.0,setttled,0,1,7029 WISCONSIN AVENUE,CHEVY CHASE,MD,20815
639,NOT YOUR AVERAGE JOE'S,Sale To Minor,12/06/2017,1000.0,setttled,0,1,8661 COLESVILLE ROAD,SILVER SPRING,MD,20910
640,B&B BEER AND WINE,Sale To Minor,10/08/2018,1000.0,setttled,0,1,8403 SNOUFFER SCHOOL RD.,GAITHERSBURG,MD,20879
641,ASI ES MI TIERRA,Sale To Minor,06/08/2017,1000.0,setttled,0,1,2559 ENNALLS AVENUE,WHEATON,MD,20902
642,OGEI'S CHICKEN & SUBS,Of The Neighborhood,05/31/2016,0.0,hearing,1,0,293 MUDDY BRANCH ROAD,GAITHERSBURG,MD,20878
643,CLYDES TOWER OAKS LODGE,Alcohol Awareness Certified Person Not On Premises,10/20/2017,100.0,setttled,0,1,2 PRESERVE PKWY.,ROCKVILLE,MD,20852
644,COPPER CANYON GRILL,Failed To Label Products From Dispensing Apparatus,04/11/2017,500.0,setttled,0,1,100 BOARDWALK PLACE,GAITHERSBURG,MD,20878
645,MAMMA LUCIA,License Not Properly Displayed,12/05/2017,100.0,setttled,0,1,4916 ELM STREET,BETHESDA,MD,20814
646,GENTLEMAN JIM'S RESTAURANT,License Not Properly Displayed,11/09/2017,100.0,setttled,0,1,18917 EARHART COURT,GAITHERSBURG,MD,20879
647,LAHINCH TAVERN & GRILL,Sale To Minor,02/13/2017,333.0,setttled,0,1,7747 TUCKERMAN LANE,POTOMAC,MD,20854
648,ARMANDS CHICAGO PIZZERIA,Sale To Minor,02/09/2016,2500.0,setttled,0,1,1909 SEMINARY ROAD,SILVER SPRING,MD,20910
649,OWENS ORDINARY,Records Invoice Violation,09/14/2018,500.0,setttled,0,1,11820 TRADE STREET,NORTH BETHESDA,MD,20852
650,GHAR-E-KABAB,Sale To Minor,02/08/2018,1000.0,setttled,0,1,944 WAYNE AVENUE,SILVER SPRING,MD,20910
651,29 CONVENIENCE MART,Sale To Minor,02/22/2016,2500.0,setttled,0,1,10755 COLESVILLE ROAD,SILVER SPRING,MD,20901
652,FISH TACO,Sale To Minor,01/23/2017,1000.0,setttled,0,1,7015 WISCONSIN AVENUE,CHEVY CHASE,MD,20815
653,ARAT KILO MARKET AND RESTAURANT,Sale To Minor,01/10/2018,1000.0,setttled,0,1,818 EASLEY STREET,SILVER SPRING,MD,20910
654,MIX BAR & GRILLE,Sale To Minor,12/01/2017,1000.0,setttled,0,1,9812 FALLS RD,POTOMAC,MD,20854
655,MISO CAFE,Alcohol Awareness Certified Person Not On Premises,10/09/2017,500.0,setttled,0,1,33 MARYLAND AVENUE UNIT E,ROCKVILLE,MD,20850
656,BECLAWS,Sale To Minor,05/09/2017,1000.0,setttled,0,1,2404 UNIVERSITY BOULEVARD,SILVER SPRING,MD,20902
657,TED'S MONTANA GRILL,Sale To Minor,09/24/2018,2500.0,setttled,0,1,105 ELLINGTON BOULEVARD,GAITHERSBURG,MD,20878
658,NANTUCKET'S REEF,Sale To Minor,02/19/2019,2500.0,setttled,0,1,9755 GATEWAY DRIVE,ROCKVILLE,MD,20850
659,LEDO PIZZA AND PASTA,Sale To Minor,05/03/2017,1000.0,setttled,0,1,1319 ROCKVILLE PIKE H,ROCKVILLE,MD,20852
660,BLACK'S BAR & KETCHEN,Sale To Minor,04/25/2018,1000.0,setttled,0,1,7750 WOODMONT AVE.,BETHESDA,MD,20814
661,RED LOBSTER-GAITHERSBURG,Sale To Minor,10/11/2018,2500.0,setttled,0,1,15700 SHADY GROVE ROAD,GAITHERSBURG,MD,20877
662,ACAJULTA RESTAURANT,Sale To Minor,09/14/2018,1000.0,setttled,0,1,18554 WOODFIELD ROAD,GAITHERSBURG,MD,20879
663,URBAN CRAWFISH,Refilling Empty/Partially Empty Alcoholic Bottles,04/13/2017,200.0,setttled,0,1,670 QUINCE ORCHARD RD,GAITHERSBURG,MD,20878
664,LAKESIDE BEER AND WINE,Sale To Minor,08/31/2018,1000.0,setttled,0,1,9621 LOST KNIFE RD,GAITHERSBURG,MD,20874
665,LIVE CRAWFISH & SEAFOOD,Sale To Minor,12/10/2018,1000.0,setttled,0,1,765 ROCKVILLE PIKE FG,ROCKVILLE,MD,20852
666,TAKOMA BEVERAGE COMPANY,Sale To Minor,06/01/2018,1000.0,setttled,0,1,6917 LAUREL AVENUE,TAKOMA PARK,MD,20912
667,CALIFORNIA PIZZA KITCHEN,Sale To Minor,07/05/2016,1000.0,setttled,0,1,136 BOARDWALK PLACE,GAITHERSBURG,MD,20878
668,PERUVIAN COUNTRY CHICKEN,Sale To Minor,01/30/2018,1000.0,setttled,0,1,10118 COLESVILLE ROAD,SILVER SPRING,MD,20901
669,MOGOTILLO RESTAURANT,To Intoxicated Patron,04/29/2016,10000.0,hearing+suspension,0,1,7637 NEW HAMPSHIRE AVENUE,TAKOMA PARK,MD,20912
670,MOBY DICK SEAFOOD,Sale To Minor,04/24/2017,1000.0,setttled,0,1,11220 TRIANGLE LANE,WHEATON,MD,20902
671,THE GRILLED OYSTER COMPANY,Sale To Minor,02/09/2017,1000.0,setttled,0,1,7943 TUCKERMAN LANE,POTOMAC,MD,20854
672,LE VIEUX LOGIS,Sale To Minor,11/29/2017,1000.0,setttled,0,1,7925 OLD GEORGETOWN ROAD,BETHESDA,MD,20814
673,BETHESDA CO-OP,Sale To Minor,09/21/2017,1000.0,setttled,0,1,6500 SEVEN LOCKS ROAD,CABIN JOHN,MD,20818
674,CORNER PUB,Sale To Minor,01/08/2018,1000.0,setttled,0,1,10111 SUTHERLAND ROAD,SILVER SPRING,MD,20901
675,FANTASY NAIL SPA,Alcohol Awareness Certified Person Not On Premises,12/07/2018,100.0,setttled,0,1,9321 GEORGIA AVE.,SILVER SPRING,MD,20910
676,PHO VIET STAR,Sale To Minor,02/23/2016,1000.0,setttled,0,1,13825 OUTLET DRIVE,SILVER SPRING,MD,20904
677,TEXAS PARRILLADA,To Intoxicated Patron,08/04/2016,0.0,hearing,0,0,9631 LOST KNIFE ROAD,GAITHERSBURG,MD,20879
678,YU-ZHOU CAFE,Sale To Minor,07/12/2016,1000.0,setttled,0,1,576 NORTH FREDERICK AVENUE,GAITHERSBURG,MD,20877
679,HICKORY BAR & GRILL,Alcohol Awareness Certified Person Not On Premises,09/18/2018,100.0,setttled,0,1,15420 OLD COLUMBIA PIKE,BURTONSVILLE,MD,20866
680,ACAJULTA RESTAURANT,Alcohol Awareness Certified Person Not On Premises,09/14/2018,100.0,setttled,0,1,18554 WOODFIELD ROAD,GAITHERSBURG,MD,20879
681,BECLAWS,Alcohol Awareness Certified Person Not On Premises,06/12/2018,100.0,setttled,0,1,2404 UNIVERSITY BOULEVARD,SILVER SPRING,MD,20902
682,ANDY'S BEER AND WINE,Storage,03/15/2018,600.0,setttled,0,1,15523 NEW HAMPSHIRE AVE,SILVER SPRING,MD,20905
683,SPICE XING,Sale To Minor,05/17/2017,1000.0,setttled,0,1,100 GIBBS STREET B,ROCKVILLE,MD,20850
684,HOLA BEER & WINE,Records Invoice Violation,02/01/2019,500.0,setttled,0,1,8035 SNOUFFER SCHOOL ROAD,GAITHERSBURG,MD,20879
685,REDGATE GOLF COURSE,Sale To Minor,05/30/2017,2500.0,setttled,0,1,14500 AVERY ROAD,ROCKVILLE,MD,20853
686,AGRODOLCE,Sale To Minor,12/03/2018,1000.0,setttled,0,1,21030 FREDERICK ROAD J,GERMANTOWN,MD,20876
687,LA COLOMBIANA RESTAURANT,Dispensing Liquor By Bottle For Consumption Onsite,10/26/2018,1000.0,setttled,0,1,11216 GRANDVIEW AVENUE,WHEATON,MD,20902
688,LA ANTIGUA RESTAURANT,To Intoxicated Patron,08/24/2018,1000.0,setttled,0,1,11260 GEORGIA AVE,WHEATON,MD,20902
689,SIN & GRIN,Sale To Minor,09/25/2018,1000.0,setttled,0,1,353 MAIN STREET,GAITHERSBURG,MD,20878
690,RESTAURANT POLLOS EL MESON,Alcohol Awareness Certified Person Not On Premises,02/07/2018,100.0,setttled,0,1,615 SOUTH FREDERICK AVENUE,GAITHERSBURG,MD,20877
691,LEBANESE TAVERNA,Sale To Minor,11/30/2017,1000.0,setttled,0,1,7141 ARLINGTON ROAD,BETHESDA,MD,20814
692,ARMANDS CHICAGO PIZZERIA,Age Of Employee Violation,02/27/2018,1000.0,setttled,0,1,1909 SEMINARY ROAD,SILVER SPRING,MD,20910
693,RAINBOW SUSHI,Records Invoice Violation,04/25/2018,500.0,setttled,0,1,18076 MATENY RD,GERMANTOWN,MD,20874
694,SUPER BOWL NOODLE HOUSE,Employee Records Not Available When Requested,02/15/2017,500.0,setttled,0,1,785 ROCKVILLE PIKE,ROCKVILLE,MD,20852
695,TANDOORI NIGHTS-BETHESDA,Sale To Minor,03/21/2016,1000.0,setttled,0,1,7236 WOODMONT AVENUE,BETHESDA,MD,20814
696,GROWLERS,Sale To Minor,12/15/2016,1000.0,setttled,0,1,227 E. DIAMOND AVE.,GAITHERSBURG,MD,20877
697,NEW VILLAGE RESTAURANT,Records Invoice Violation,09/11/2017,500.0,setttled,0,1,11540 MIDDLEBROOK ROAD,GERMANTOWN,MD,20876
698,KENSINGTON SUB & PIZZA,Sale To Minor,10/04/2017,1000.0,setttled,0,1,3701 UNIVERSITY BLVD. W.,KENSINGTON,MD,20895
699,THE BURGER JOINT,Sale To Minor,07/12/2016,2500.0,setttled,0,1,229 BOARD WALK PLACE,BETHESDA,MD,20814
700,POOLESVILLE GOLF COURSE,Sale To Minor,12/06/2017,1000.0,setttled,0,1,16601 WEST WILLARD RD,POOLESVILLE,MD,20837
701,SQUIRES ROCK CREEK CHOPHOUSE,Sale To Minor,05/10/2017,1000.0,setttled,0,1,2405 PRICE AVENUE,WHEATON,MD,20902
702,HAMPTON INN & SUITES,Sale To Minor,01/20/2017,1000.0,setttled,0,1,960 FREDERICK AVE,GAITHERSBURG,MD,20879
703,SARDIS FUSION,Failed To Label Products From Dispensing Apparatus,02/13/2018,500.0,setttled,0,1,3418 OLNEYLAYTONSVILLE ROAD,OLNEY,MD,20832
704,EL MARIACHI,Sale To Minor,11/28/2018,1000.0,setttled,0,1,765 ROCKVILLE PIKE C,ROCKVILLE,MD,20852
705,CHIPOTLE MEXICAN GRILL - KENTLANDS,Alcohol Awareness Certified Person Not On Premises,12/13/2016,100.0,setttled,0,1,96 MAIN STREET,GAITHERSBURG,MD,20878
706,BAR LOUIE,To Intoxicated Patron,06/20/2017,1000.0,setttled,0,1,150 GIBBS STREET,ROCKVILLE,MD,20850
707,FOREST GLEN DELI,Sale To Minor,05/24/2016,1000.0,setttled,0,1,536 FOREST GLEN ROAD,SILVER SPRING,MD,20901
708,DIETLES,Sale To Minor,02/06/2018,1000.0,setttled,0,1,11010 ROCKVILLE PIKE,ROCKVILLE,MD,20852
709,WALIA ETHIOPIAN RESTAURANT,Sale To Minor,06/03/2016,1000.0,setttled,0,1,6846 NEW HAMPSHIRE AVE.,TAKOMA PARK,MD,20912
710,FOUR U,Sale To Minor,05/11/2016,2500.0,setttled,0,1,8120 PINEY BRANCH ROAD,SILVER SPRING,MD,20910
711,NEW YORK J & P PIZZA,Alcohol Awareness Certified Person Not On Premises,09/06/2018,100.0,setttled,0,1,26027 RIDGE ROAD,DAMASCUS,MD,20872
712,TARA THAI,Sale To Minor,02/27/2017,1000.0,setttled,0,1,12071 ROCKVILLE PIKE,ROCKVILLE,MD,20852
713,GISELES CREOLE CUISINE,Sale To Minor,10/11/2018,2500.0,setttled,0,1,2407 PRINCE AVENUE,SILVER SPRING,MD,20902
714,ASIA NINE II,Sale To Minor,09/18/2018,1000.0,setttled,0,1,254 CROWN PARK ROAD,GAITHERSBURG,MD,20878
715,PACCI'S TRATTORIA,Sale To Minor,09/28/2018,1000.0,setttled,0,1,6 POST OFFICE,SILVER SPRING,MD,20910
716,PANDORA SEAFOOD HOUSE,Failed To Label Products From Dispensing Apparatus,07/19/2018,100.0,setttled,0,1,36 A MARYLAND AVENUE,ROCKVILLE,MD,20850
717,WHITE OAK CONVENIENCE STORE,Sale To Minor,03/13/2018,1000.0,setttled,0,1,11407 LOCKWOOD DRIVE,SILVER SPRING,MD,20904
718,CHIPOTLE MEXICAN GRILL,Sale To Minor,12/29/2016,1000.0,setttled,0,1,4471 WILLIARD AVENUE,CHEVY CHASE,MD,20815
719,DAWSON'S MARKET,Sale To Minor,09/05/2017,2500.0,setttled,0,1,225 NORTH WASHINGTON,ROCKVILLE,MD,20850
720,SMASHBURGER,Sale To Minor,02/15/2017,1000.0,setttled,0,1,20640 SENECA MEADOWS PARKWAY D1,GERMANTOWN,MD,20867
721,BOMBAY BISTRO,Sale To Minor,02/08/2017,1000.0,setttled,0,1,98 W. MONTGOMERY AVE.,ROCKVILLE,MD,20850
722,SOCIETY RESTAURANT & LOUNGE,Of The Neighborhood,08/29/2018,1000.0,setttled,0,1,8229 GEORGIA AVE,SILVER SPRING,MD,20910
723,EL BOTANERO,Sale To Minor,04/11/2017,1000.0,setttled,0,1,800 PLEASANT DRIVE UNIT 160,ROCKVILLE,MD,20850
724,EL PUENTE DE ORO,Alcohol Awareness Certified Person Not On Premises,02/01/2016,500.0,setttled,0,1,11123 VEIRS MILL ROAD,WHEATON,MD,20902
725,WHEATON WINERY,Sale To Minor,08/08/2018,2500.0,setttled,0,1,2211 UNIVERSITY BLVD. W. B,WHEATON,MD,20902
726,ZENE'S DELI & WORLDMARKET,Sale To Minor,01/08/2018,1000.0,setttled,0,1,8113 FENTON STREET,SILVER SPRING,MD,20910
727,URBAN BAR-B-QUE,License Not Properly Displayed,11/21/2018,100.0,setttled,0,1,10163 NEW HAMPSHIRE AVE,SILVER SPRING,MD,20903
728,KALDI'S COFFEE,Dispensing Liquor By Bottle For Consumption Onsite,08/24/2017,1000.0,setttled,0,1,918 SILVER SPRING AVENUE,SILVER SPRING,MD,20910
729,LA FONDA CHIQUITA CAFE,Alcohol Awareness Certified Person Not On Premises,07/24/2018,100.0,setttled,0,1,6838 NEW HAMPSHIRE AVE.,TAKOMA PARK,MD,20912
730,SEAFOOD IN THE BUFF,Sale To Minor,08/08/2018,1000.0,setttled,0,1,12132 GEORGIA AVE,WHEATON,MD,20902
731,CAFE 20/20,License Not Properly Displayed,01/24/2017,100.0,setttled,0,1,4880 BOILING BROOK PARKWAY,ROCKVILLE,MD,20852
732,ERTTERS SUPERMARKET,Sale To Minor,12/28/2017,1000.0,setttled,0,1,521 DALE DRIVE,SILVER SPRING,MD,20910
733,AKIRA RAMEN IZAKAYA,Alcohol Awareness Certified Person Not On Premises,01/15/2019,100.0,setttled,0,1,1800 ROCKVILLE PIKE UNIT H1,ROCKVILLE,MD,20852
734,LEDO'S LEISURE WORLD,Sale To Minor,04/13/2017,1000.0,setttled,0,1,3850 INTERNATIONAL DRIVE,SILVER SPRING,MD,20906
735,PERUVIAN CHICKEN & GRILL,Sale To Minor,08/09/2018,1000.0,setttled,0,1,26400 RIDGE RD,DAMASCUS,MD,20872
736,BASSETT'S,Sale To Minor,11/09/2017,1000.0,setttled,0,1,19950 FISHER AVE.,POOLESVILLE,MD,20837
737,ODALIS,Sale To Minor,08/29/2018,2500.0,setttled,0,1,8215 GEORGIA AVENUE,SILVER SPRING,MD,20910
738,"KWIK-STOP BEER, WINE & DELI",Sale To Minor,12/07/2018,1000.0,setttled,0,1,15104 FREDERICK ROAD,ROCKVILLE,MD,20850
739,ASI ES MI TIERRA,Alcohol After Permitted Hours,06/24/2016,1000.0,setttled,0,1,2559 ENNALLS AVENUE,WHEATON,MD,20902
740,RUAN THAI,Sale To Minor,07/24/2017,2500.0,setttled,0,1,11407 AMHERST AVE.,WHEATON,MD,20902
741,GODAVARI,Alcohol Awareness Certified Person Not On Premises,09/27/2016,100.0,setttled,0,1,9011 GAITHER ROAD,GAITHERSBURG,MD,20877
742,PANDORA SEAFOOD HOUSE,Records Invoice Violation,06/01/2018,500.0,setttled,0,1,36 A MARYLAND AVENUE,ROCKVILLE,MD,20850
743,HYATT SUMMERFIELD SUITES,Alcohol Awareness Certified Person Not On Premises,06/24/2016,100.0,setttled,0,0,200 SKIDMORE BOULEVARD,GAITHERSBURG,MD,20877
744,WINGSTOP,Sale To Minor,11/21/2018,2500.0,setttled,0,1,20201 GOSHEN ROAD UNIT G,GAITHERSBURG,MD,20879
745,UNION JACK'S,Alcohol Awareness Certified Person Not On Premises,01/25/2018,100.0,setttled,0,1,4915 SAINT ELMO AVE.,BETHESDA,MD,20814
746,ARADA MARKET,Alcohol Awareness Certified Person Not On Premises,10/24/2018,100.0,setttled,0,1,6844 NEW HAMPSHIRE AVE,TAKOMA PARK,MD,20912
747,SOLE D'ITALIA RESTAURANT,Sale To Minor,05/31/2017,2500.0,setttled,0,1,14324 LAYHILL ROAD,SILVER SPRING,MD,20906
748,CAPTAIN'S MARKET,Sale To Minor,03/17/2016,7500.0,hearing,0,1,7607 MACARTHUR BLVD.,CABIN JOHN,MD,20818
749,DOLLAR PLUS STORE #7,Sale To Minor,04/28/2017,1000.0,setttled,0,1,11250 TRIANGLE LANE,SILVER SPRING,MD,20902
750,BOBBY'S BURGER PALACE,Sale To Minor,09/22/2017,1000.0,setttled,0,1,7101 DEMOCRACY BLVD.,BETHESDA,MD,20817
751,RUMBA Y CARBON,Sale To Minor,05/05/2016,2500.0,hearing,0,1,11222 GRANDVIEW AVENUE,GAITHERSBURG,MD,20902
752,MISO CAFE,Alcohol Awareness Certified Person Not On Premises,02/27/2017,100.0,setttled,0,1,33 MARYLAND AVENUE UNIT E,ROCKVILLE,MD,20850
753,MI RANCHO,Sale To Minor,12/20/2017,1000.0,setttled,0,1,8701 RAMSEY LANE,SILVER SPRING,MD,20910
754,CAFE 20/20,Employee Records Not Available When Requested,03/10/2017,500.0,setttled,0,1,4880 BOILING BROOK PARKWAY,ROCKVILLE,MD,20852
755,WOODSIDE DELI,Alcohol Awareness Certified Person Not On Premises,06/09/2017,500.0,setttled,0,1,9329 GEORGIA AVE.,SILVER SPRING,MD,20910
756,LA FOGATA RESTAURANT,Employee Records Not Available When Requested,04/24/2017,500.0,setttled,0,1,2259 BEL PRE ROAD,SILVER SPRING,MD,20906
757,WALIA ETHIOPIAN RESTAURANT,Employee Records Not Available When Requested,10/04/2016,500.0,setttled,0,1,6846 NEW HAMPSHIRE AVE.,TAKOMA PARK,MD,20912
758,CALIFORNIA GRILL,Alcohol Awareness Certified Person Not On Premises,03/13/2018,100.0,setttled,0,1,14 BUREAU DRIVE,GAITHERSBURG,MD,20877
759,CONVENIENT BEER & WINE,Sale To Minor,09/05/2018,1000.0,setttled,0,1,8441 SNOUFFER SCHOOL RD,GAITHERSBURG,MD,20879
760,VILLA MAYA RESTAURANT,Sale To Minor,04/28/2017,1000.0,setttled,0,1,5532 NORBECK ROAD,ROCKVILLE,MD,20853
761,TURNTABLE,License Not Properly Displayed,11/30/2017,100.0,setttled,0,1,4862 CORDELL AVENUE,BETHESDA,MD,20814
762,RUTH'S CHRIS STEAK HOUSE,Sale To Minor,06/10/2016,2500.0,setttled,0,1,7315 WISCONSIN AVE.,BETHESDA,MD,20814
763,HIBACHI SUSHI SUPREME BUFFET,Alcohol Awareness Certified Person Not On Premises,06/14/2018,100.0,setttled,0,1,8 BUREAU DRIVE,GAITHERSBURG,MD,20878
764,KAYPI RESTAURANT,Sale To Minor,02/07/2018,1000.0,setttled,0,1,2005 VEIRS MILL ROAD,ROCKVILLE,MD,20851
765,FUSION BAR & GRILL,Inspections Generally,10/05/2016,0.0,hearing,1,0,15535 NEW HAMPSHIRE AVENUE,SILVER SPRING,MD,20905
766,OUTBACK STEAKHOUSE,Alcohol Awareness Certified Person Not On Premises,04/24/2017,100.0,setttled,0,1,13703 GEORGIA AVEUE,SILVER SPRING,MD,20906
767,SUSHI KO,Sale To Minor,01/06/2017,1000.0,setttled,0,1,5455 WISCONSIN AVENUE,CHEVY CHASE,MD,20815
768,4935 BAR & KITCHEN,Disorderly House,12/13/2017,1000.0,setttled,0,1,4935 CORDELL AVENUE,BETHESDA,MD,20814
769,GESTE FOODS & WINE,Alcohol Awareness Certified Person Not On Premises,02/02/2017,0.0,hearing+suspension,0,0,4801 EDGEMOOR LANE,BETHESDA,MD,20814
770,FUSION BAR & GRILL,Disorderly House,10/05/2016,0.0,hearing,1,0,15535 NEW HAMPSHIRE AVENUE,SILVER SPRING,MD,20905
771,HONEY PIG,Storage,06/14/2018,600.0,setttled,0,1,19727 FREDERICK ROAD,GERMANTOWN,MD,20876
772,MUDDY BRANCH BEER & WINE,Sale To Minor,07/25/2016,1000.0,setttled,0,0,836 MUDDY BRANCH ROAD,GAITHERSBURG,MD,20878
773,POCKET BAR & GRILL,Sale To Minor,05/03/2017,1000.0,setttled,0,1,15535 NEW HAMPSHIRE AVENUE,SILVER SPRING,MD,20905
774,THE DAILY DISH,Storage,12/14/2018,1200.0,setttled,0,1,8301 GRUBB RAOD A,SILVER SPRING,MD,20910
775,MOONLIGHT BAR,Employee Records Not Available When Requested,09/05/2018,500.0,setttled,0,1,8035 SNOUFFER SCHOOL RD,GAITHERSBURG,MD,20879
776,LILIT CAFE,Employee Records Not Available When Requested,12/18/2017,500.0,setttled,0,1,7921 OLD GEORGETOWN RD,BETHESDA,MD,20814
777,WESTLAKE BEER & WINE,Sale To Minor,03/29/2018,1000.0,setttled,0,1,10442 AUTOPARK AVENUE,BETHESDA,MD,20817
778,JOSE'S GRILL,Sale To Minor,09/09/2016,1000.0,setttled,0,1,11423 GEORGIA AVE.,WHEATON,MD,20902
779,GOSHEN PLAZA BEER & WINE,Sale To Minor,08/31/2018,1000.0,setttled,0,1,9150 ROTHBURY DR,MONTGOMERY VILLAGE,MD,20886
780,CAFE DELUXE,Sale To Minor,10/09/2017,1000.0,setttled,0,1,4910 ELM STREET,BETHESDA,MD,20814
781,BAR LOUIE WHEATON,Alcohol Awareness Certified Person Not On Premises,10/19/2018,100.0,setttled,0,1,11160 VEIRS MILL RD,WHEATON,MD,20902
782,CLARKSBURG GROCERIES BEER & WINE,Sale To Minor,10/12/2018,2500.0,setttled,0,1,23329 FREDERICK ROAD,CLARKSBURG,MD,20871
783,DAILY GRILL,Sale To Minor,01/31/2017,2500.0,setttled,0,1,1 BETHESDA METRO CENTER,BETHESDA,MD,20814
784,CHEESE & WINE SHOPPE,To Intoxicated Patron,02/01/2018,2500.0,setttled,0,1,2501 ENNALLS AVE.,WHEATON,MD,20902
785,4935 BAR & KITCHEN,Acts Contrary To Law,12/13/2017,2500.0,setttled,0,1,4935 CORDELL AVENUE,BETHESDA,MD,20814
786,LA MEXICANA,Sale To Minor,08/31/2018,1000.0,setttled,0,1,13016 MIDDLEBROOK ROAD,GERMANTOWN,MD,20874
787,EL AGUILA,Alcohol Awareness Certified Person Not On Premises,07/25/2017,100.0,setttled,0,1,7926 GEORGIA AVENUE,SILVER SPRING,MD,20910
788,LE PAIN QUOTIDIEN,Alcohol Awareness Certified Person Not On Premises,04/04/2018,100.0,setttled,0,1,7140 BETHESDA LANE,BETHESDA,MD,20814
789,PANDORA SEAFOOD HOUSE,Alcohol Awareness Certified Person Not On Premises,07/19/2018,500.0,setttled,0,1,36 A MARYLAND AVENUE,ROCKVILLE,MD,20850
790,SIRIWAN THAI RESTAURANT,Sale To Minor,05/12/2017,1000.0,setttled,0,1,736 CLOVERLY STREET,SILVER SPRING,MD,20905
791,SOCIETY RESTAURANT & LOUNGE,Alcohol After Permitted Hours,02/04/2019,1000.0,setttled,0,1,8229 GEORGIA AVE,SILVER SPRING,MD,20910
792,WOODSIDE DELI,Sale To Minor,01/03/2018,1000.0,setttled,0,1,9329 GEORGIA AVE.,SILVER SPRING,MD,20910
793,EL ANDARIEGO,Sale To Minor,09/07/2018,1000.0,setttled,0,1,5 OLNEY SANDY SPRING ROAD,ASHTON,MD,20861
794,GAITHERSBURG SUPERMARKET,Sale To Minor,08/16/2016,1000.0,setttled,0,1,220 EAST DIAMOND AVENUE,GAITHERSBURG,MD,20877
795,LA COLOMBIANA RESTAURANT,Alcohol Awareness Certified Person Not On Premises,07/03/2017,100.0,setttled,0,1,11216 GRANDVIEW AVENUE,WHEATON,MD,20902
796,WORLD OF BEER,Sale To Minor,12/10/2018,1000.0,setttled,0,1,196 B EAST MONTGOMERY AVE.,ROCKVILLE,MD,20850
797,FOOD STOP MINI MART,Sale To Minor,04/14/2016,2500.0,setttled,0,1,4820 BOILING BROOK PARKWAY,ROCKVILLE,MD,20852
798,NEW YORK J & P PIZZA,Employee Records Not Available When Requested,09/06/2018,500.0,setttled,0,1,26027 RIDGE ROAD,DAMASCUS,MD,20872
799,SLIGO PARK GOLF COURSE SNACK BAR,Sale To Minor,06/02/2016,1000.0,setttled,0,1,9701 SLIGO CREEK PARKWAY,SILVER SPRING,MD,20901
800,MILLER'S ALE HOUSE,Sale To Minor,02/26/2016,2500.0,setttled,0,1,1471 ROCKVILLE PIKE,ROCKVILLE,MD,20852
801,DIAMOND SQUARE BEER & WINE,Sale To Minor,09/07/2018,1000.0,setttled,0,1,38 BUREAU DRIVE,GAITHERSBURG,MD,20878
802,QUINCY'S BAR & GRILLE,To Intoxicated Patron,07/19/2017,1000.0,setttled,0,1,616 QUINCE ORCHARD ROAD,GAITHERSBURG,MD,20878
803,MEXICAN GRILL,Sale To Minor,01/03/2017,1000.0,setttled,0,1,19710 FISHER AVENUE,POOLESVILLE,MD,20837
804,3 STAR CONVENIENCE STORE,Sale To Minor,09/10/2018,1000.0,setttled,0,1,18524 WOODFIELD ROAD,GAITHERSBURG,MD,20879
805,MIDDLEBROOK DISCOUNT B&W,Sale To Minor,08/13/2018,1000.0,setttled,0,1,19601 FREDERICK RD,GERMANTOWN,MD,20876
806,EL SOL SALVADOREAN & MEXICAN RESTAURANT,Records Invoice Violation,09/07/2018,500.0,setttled,0,1,13881 OUTLET DRIVE C,SILVER SPRING,MD,20904
807,TALBOTT BEER & WINE,Sale To Minor,01/30/2017,1000.0,setttled,0,1,1071 ROCKVILLE PIKE,ROCKVILLE,MD,20852
808,TACO BAR,Sale To Minor,09/05/2017,1000.0,setttled,0,1,3 RUSSELL AVE A,GAITHERSBURG,MD,20877
809,QUICK STOP BEER & WINE,Sale To Minor,02/03/2017,1000.0,setttled,0,1,21101 FREDERICK AVENUE,GERMANTOWN,MD,20876
810,URBAN CRAWFISH,Sale To Minor,02/09/2017,1000.0,setttled,0,0,670 QUINCE ORCHARD RD,GAITHERSBURG,MD,20878
811,GISELES CREOLE CUISINE,Sale To Minor,08/14/2017,1000.0,setttled,0,1,2407 PRINCE AVENUE,SILVER SPRING,MD,20902
812,BARKING MAD CAFE,Sale To Minor,09/11/2018,1000.0,setttled,0,1,239 SPECTRUM AVENUE,GAITHERSBURG,MD,20879
813,MINERVA INDIAN CUISINE,Alcohol Awareness Certified Person Not On Premises,04/23/2018,500.0,setttled,0,1,16240 FREDERICK ROAD,GAITHERSBURG,MD,20877
814,LINCOLN'S BAR-B-Q,Sale To Minor,05/01/2018,1000.0,setttled,0,1,931 ELLSWORTH DRIVE,SILVER SPRING,MD,20910
815,CALIFORNIA PIZZA KITCHEN,Sale To Minor,10/17/2017,1000.0,setttled,0,1,7101 DEMOCRACY BLVD.,BETHESDA,MD,20817
816,PANDORA SEAFOOD HOUSE,Refilling Empty/Partially Empty Alcoholic Bottles,07/19/2018,1000.0,setttled,0,1,36 A MARYLAND AVENUE,ROCKVILLE,MD,20850
817,FONTINA GRILLE,Alcohol Awareness Certified Person Not On Premises,08/10/2017,100.0,setttled,0,1,801 PLEASANT DRIVE,ROCKVILLE,MD,20850
818,HIBACHI SUSHI SUPREME BUFFET,Alcohol Awareness Certified Person Not On Premises,12/18/2018,500.0,none,0,1,8 BUREAU DRIVE,GAITHERSBURG,MD,20878
819,SUPER CHICKEN,Alcohol Awareness Certified Person Not On Premises,09/28/2018,500.0,setttled,0,1,12611 H WISTERIA DRIVE,GERMANTOWN,MD,20874
820,BRANDED 72,Alcohol Awareness Certified Person Not On Premises,12/12/2017,500.0,setttled,0,1,387 EAST GUDE DRIVE,ROCKVILLE,MD,20850
821,GUDE DELI,Sale To Minor,02/14/2017,1000.0,setttled,0,1,14809 SOUTHLAWN LANE,ROCKVILLE,MD,20850
822,MAMMA LUCIA,Employee Records Not Available When Requested,12/05/2017,500.0,setttled,0,1,4916 ELM STREET,BETHESDA,MD,20814
823,HIBACHI SUSHI SUPREME BUFFET,Records Invoice Violation,06/14/2018,500.0,setttled,0,1,8 BUREAU DRIVE,GAITHERSBURG,MD,20878
824,ISLAND PRIDE OASIS,License Not Properly Displayed,07/07/2017,100.0,setttled,0,1,617 SOUTH FREDERICK AVENUE,GAITHERSBURG,MD,20877
825,CHIPOTLE MEXICAN GRILL,Sale To Minor,06/24/2016,2500.0,setttled,0,1,7624 OLD GEORGETOWN ROAD,BETHESDA,MD,20814
826,EL SOL SALVADOREAN & MEXICAN RESTAURANT,Alcohol Awareness Certified Person Not On Premises,01/20/2016,500.0,setttled,0,1,13881 OUTLET DRIVE C,SILVER SPRING,MD,20904
827,APPLEBEE'S,Sale To Minor,01/23/2017,1000.0,setttled,0,1,21048 FREDERICK RD,GERMANTOWN,MD,20876
828,FOOD STOP MINI MART,Sale To Minor,06/09/2017,2500.0,setttled,0,1,4820 BOILING BROOK PARKWAY,ROCKVILLE,MD,20852
829,ABI AZTECA GRILL,Records Invoice Violation,12/20/2017,500.0,setttled,0,1,11514 MIDDLEBROOK RD.,GERMANTOWN,MD,20874
830,TIGER BEER WINE DELI,Sale To Minor,02/27/2017,1000.0,setttled,0,1,303 N. WASHINGTON STREET,ROCKVILLE,MD,20850
831,ODALIS,Employee Records Not Available When Requested,06/12/2018,500.0,setttled,0,1,8215 GEORGIA AVENUE,SILVER SPRING,MD,20910
832,OGEI'S CHICKEN & SUBS,To Intoxicated Patron,05/31/2016,0.0,hearing,1,0,293 MUDDY BRANCH ROAD,GAITHERSBURG,MD,20878
833,RUMBA Y CARBON,Employee Records Not Available When Requested,08/31/2018,500.0,setttled,0,1,11222 GRANDVIEW AVENUE,GAITHERSBURG,MD,20902
834,FENWICK BEER & WINE,Sale To Minor,03/03/2016,2500.0,setttled,0,1,1327 FENWICK LANE,SILVER SPRING,MD,20910
835,PERUVIAN CHICKEN & GRILL,Alcohol Awareness Certified Person Not On Premises,07/24/2018,100.0,setttled,0,1,26400 RIDGE RD,DAMASCUS,MD,20872
836,SOCIETY RESTAURANT & LOUNGE,Dispensing Liquor By Bottle For Consumption Onsite,08/29/2018,1000.0,setttled,0,1,8229 GEORGIA AVE,SILVER SPRING,MD,20910
837,TACO BAR,Sale To Minor,09/14/2018,1000.0,setttled,0,1,10003 FIELDS ROAD B,GAITHERSBURG,MD,20878
838,THE BARKING DOG,To Intoxicated Patron,06/16/2016,0.0,hearing+suspension,0,0,4723 ELM STREET,BETHESDA,MD,20814
839,CLARKSBURG GROCERIES BEER & WINE,Alcohol Awareness Certified Person Not On Premises,10/12/2018,100.0,setttled,0,1,23329 FREDERICK ROAD,CLARKSBURG,MD,20871
840,RINCON PERUANO,Sale To Minor,01/27/2017,1000.0,setttled,0,1,210 EAST DIAMOND ST,GAITHERSBURG,MD,20877
841,RUMBA Y CARBON,Sale To Minor,08/31/2018,1000.0,setttled,0,1,11222 GRANDVIEW AVENUE,GAITHERSBURG,MD,20902
842,RUAN THAI,Employee Records Not Available When Requested,07/24/2017,500.0,setttled,0,1,11407 AMHERST AVE.,WHEATON,MD,20902
843,BAR LOUIE,Alcohol Awareness Certified Person Not On Premises,09/06/2016,100.0,setttled,0,1,150 GIBBS STREET,ROCKVILLE,MD,20850
844,I STAR COFFEE,Sale To Minor,10/30/2018,1000.0,setttled,0,0,8777 B1 1ST AVENUE,SILVER SPRING,MD,20910
845,RIVERSIDE HOTPOT CUISINE,Alcohol Awareness Certified Person Not On Premises,12/07/2018,500.0,setttled,0,1,820 MUDDY BRANCH ROAD,GAITHERSBURG,MD,20878
846,NORTHWEST PARK GOLF SNACK BAR,Alcohol Awareness Certified Person Not On Premises,12/06/2017,100.0,setttled,0,1,15701 LAYHILL ROAD,SILVER SPRING,MD,20906
847,EVA LOUNGE,Alcohol After Permitted Hours,11/09/2018,1000.0,setttled,0,1,953 BONIFANT STREET,SILVER SPRING,MD,20910
848,CHUY'S,Sale To Minor,03/08/2017,1000.0,setttled,0,1,12266 ROCKVILLE PIKE,ROCKVILLE,MD,20852
849,WOK EXPRESS,Alcohol Awareness Certified Person Not On Premises,06/08/2016,100.0,setttled,0,1,9615 LOST KNIFE ROAD,GAITHERSBURG,MD,20877
850,ROCK BOTTOM BREWERY,Records Invoice Violation,12/28/2017,500.0,setttled,0,1,7900 NORFOLK AVE.,BETHESDA,MD,20814
851,CHIPOTLE MEXICAN GRILL,Employee Records Not Available When Requested,12/29/2016,500.0,setttled,0,1,4471 WILLIARD AVENUE,CHEVY CHASE,MD,20815
852,HUNAN DELIGHT,Sale To Minor,03/31/2017,2500.0,setttled,0,1,18220 VILLAGE MART DRIVE,OLNEY,MD,20832
853,LIMARIA POLLO A LA BRASA,Sale To Minor,08/13/2018,1000.0,setttled,0,1,74 BUREAU DRIVE,GAITHERSBURG,MD,20878
854,MI PUEBLITO RESTAURANT,Records Invoice Violation,03/22/2018,500.0,setttled,0,1,6 NORTH SUMMIT AVENUE,GAITHERSBURG,MD,20877
855,NOODLES & COMPANY,Alcohol Awareness Certified Person Not On Premises,07/01/2016,500.0,setttled,0,1,177 KENTLANDS BLVD. SUITE 100,GAITHERSBURG,MD,20878
856,CANCUN MEXICAN CUISINE,License Not Properly Displayed,11/06/2017,100.0,setttled,0,1,117 E. DIAMOND AVE.,GAITHERSBURG,MD,20877
857,SENOR TEQUILA'S,Sale To Minor,09/06/2018,1000.0,setttled,0,1,20021 CENTURY BLVD.,GERMANTOWN,MD,20874
858,SHANGRI-LA,Alcohol Awareness Certified Person Not On Premises,01/29/2018,100.0,setttled,0,1,7345 WISCONSIN AVENUE A,BETHESDA,MD,20814
859,OGEI'S CHICKEN & SUBS,Disorderly House,05/31/2016,0.0,hearing,1,0,293 MUDDY BRANCH ROAD,GAITHERSBURG,MD,20878
860,WOK EXPRESS,To Intoxicated Patron,06/08/2016,1000.0,setttled,0,1,9615 LOST KNIFE ROAD,GAITHERSBURG,MD,20877
861,IRON AGE,Sale To Minor,11/13/2018,2500.0,setttled,0,1,1054 ROCKVILLE PIKE,ROCKVILLE,MD,20852
862,SILVER SPRING HILTON HOTEL,Sale To Minor,02/04/2016,2500.0,setttled,0,1,8727 COLESVILLE ROAD,SILVER SPRING,MD,20910
863,GLENMONT BEER WINE & DELI,Employee Records Not Available When Requested,05/16/2017,500.0,setttled,0,1,12351 GEORGIA AVE.,WHEATON,MD,20906
864,GENTLEMAN JIM'S RESTAURANT,Alcohol After Permitted Hours,11/09/2017,1000.0,setttled,0,1,18917 EARHART COURT,GAITHERSBURG,MD,20879
865,BUMP N GRIND,Sale To Minor,02/20/2018,1000.0,setttled,0,1,1200 EAST WEST HWY,SILVER SPRING,MD,20910
866,UPCOUNTY FINE WINE & BEER,Sale To Minor,08/30/2018,1000.0,setttled,0,1,23229 STRINGTOWN RD.,CLARKSBURG,MD,20871
867,SHANGRI-LA,Sale To Minor,01/29/2018,1000.0,setttled,0,1,7345 WISCONSIN AVENUE A,BETHESDA,MD,20814
868,POTOMAC BEER & WINE,Sale To Minor,03/29/2017,1000.0,setttled,0,1,9700 TRAVILAH GATEWAY DRIVE,ROCKVILLE,MD,20850
869,NEW YORK J & P PIZZA,Age Of Employee Violation,09/06/2018,1000.0,setttled,0,1,26027 RIDGE ROAD,DAMASCUS,MD,20872
870,CAFE 20/20,Sale To Minor,03/10/2017,1000.0,setttled,0,1,4880 BOILING BROOK PARKWAY,ROCKVILLE,MD,20852
871,KEMP MILL BEER WINE & DELI,Sale To Minor,04/20/2018,1000.0,setttled,0,1,1339 LAMBERTON DRIVE,SILVER SPRING,MD,20902
872,THE THAI CUISINE RESTAURANT,Alcohol Awareness Certified Person Not On Premises,08/10/2017,100.0,setttled,0,1,757 HUNGERFORD DRIVE,ROCKVILLE,MD,20850
873,IRENE'S PUPUSAS,Sale To Minor,05/26/2017,2500.0,setttled,0,1,12391 GEORGIA AVENUE,SILVER SPRING,MD,20906
874,SMASHBURGER (ROCKVILLLE),Alcohol Awareness Certified Person Not On Premises,11/02/2016,100.0,setttled,0,1,1800 ROCKVILLE PIKE,ROCKVILLE,MD,20852
875,BONCHON OF GERMANTOWN,Sale To Minor,01/30/2017,1000.0,setttled,0,1,19775 FREDERICK ROAD,GERMANTOWN,MD,20876
876,FAIRFIELD INN-GERMANTOWN,Sale To Minor,02/16/2017,1000.0,setttled,0,1,20025 CENTURY BLVD,GERMANTOWN,MD,20874
877,RESTAURANT POLLOS EL MESON,Storage,08/02/2018,4400.0,setttled,0,1,615 SOUTH FREDERICK AVENUE,GAITHERSBURG,MD,20877
878,"CURACION NAILS, BODY & SUCESS SANCTUARY",Alcohol Awareness Certified Person Not On Premises,10/25/2017,100.0,setttled,0,1,11308 GRANDVIEW AVENUE,SILVER SPRING,MD,20902
879,ABYSSINIA RESTAURANT,Sale To Minor,02/27/2018,2500.0,setttled,0,1,8221 GEORGIA AVENUE,SILVER SPRING,MD,20910
880,MEZEH MEDITERRANEAN GRILL,Employee Records Not Available When Requested,10/30/2018,500.0,setttled,0,1,262 CROWN PARK AVENUE,GAITHERSBURG,MD,20878
881,ZEN ASIAN GRILL SUSHI,Alcohol Awareness Certification,09/18/2022,500.0,none,0,1,15602 OLD COLUMBIA PIKE,BURTONSVILLE,MD,20866
882,CADDIES ON CORDELL,Sales Or Service To Intoxicated Persons/Consumption Or Possession By Intoxicated Persons,09/27/2022,1000.0,none,0,1,4922 CORDELL AVENUE,BETHESDA,MD,20814
883,CADDIES ON CORDELL,Compliance With Laws And Regulations,09/27/2022,1000.0,none,0,1,4922 CORDELL AVENUE,BETHESDA,MD,20814
884,CADDIES ON CORDELL,Records Violation,09/27/2022,500.0,none,0,1,4922 CORDELL AVENUE,BETHESDA,MD,20814
885,CADDIES ON CORDELL,Sales Or Service To Minors/Consumption Or Possession Of Minors,09/27/2022,1000.0,none,0,1,4922 CORDELL AVENUE,BETHESDA,MD,20814
886,CADDIES ON CORDELL,Licensee'S Responsibility,09/27/2022,1000.0,none,0,1,4922 CORDELL AVENUE,BETHESDA,MD,20814
887,PRIME BEER & WINE,Compliance With Laws And Regulations,10/18/2022,1000.0,none,0,1,12842 NEW HAMPSHIRE AVE,SILVER SPRING,MD,20904
888,BASSETT'S RESTAURANT,Records Violation,11/02/2022,500.0,none,0,1,19950 FISHER AVENUE,POOLESVILLE,MD,20837
889,BASSETT'S RESTAURANT,Alcoholic Beverage Containers- Refilling/Tampering,11/02/2022,200.0,none,0,1,19950 FISHER AVENUE,POOLESVILLE,MD,20837
890,BASSETT'S RESTAURANT,"Beverages From Faucets, Spigots, Etc./Labeling",11/02/2022,400.0,none,0,1,19950 FISHER AVENUE,POOLESVILLE,MD,20837
891,TOPGOLF,"Beverages From Faucets, Spigots, Etc./Labeling",11/02/2022,200.0,none,0,1,20051 CENTURY BLVD.,GERMANTOWN,MD,20874
892,JONGRO BBQ,Storage,11/02/2022,1800.0,none,0,1,11160 VEIRS MILL RD.,WHEATON,MD,20902
